State,Hospital Name,Type,City,Address_Location
Johor,Columbia Asia Hospital,Private,Johor Bahru,"Columbia Asia Hospital, Persiaran Southkey 5, Kota Southkey, Johor Bahru, Johor, Malaysia"
Johor,Columbia Asia Hospital  -  Iskandar Puteri,Private,Iskandar Puteri,"Columbia Asia Hospital  -  Iskandar Puteri, Persiaran Afiat, Taman Kesihatan Afiat, Iskandar Puteri, Johor, Malaysia"
Johor,Gleneagles Hospital Johor,Private,Iskandar Puteri,"Gleneagles Hospital Johor, No. 2, Jalan Medini Utara 4, Medini Iskandar, Iskandar Puteri, Johor, Malaysia"
Johor,"Hospital Enche' Besar Hajjah Kalsom, Kluang",Public,Kluang,"Hospital Enche' Besar Hajjah Kalsom, Kluang, KM 5, Jln Kota Tinggi, Kluang, Johor, Malaysia"
Johor,Hospital Kota Tinggi,Public,Kota Tinggi,"Hospital Kota Tinggi, Jalan Tun Habah, Kota Tinggi, Johor, Malaysia"
Johor,Hospital Mersing,Public,Mersing,"Hospital Mersing, Jalan Ismail, Mersing, Johor, Malaysia"
Johor,Hospital Pakar Skudai (Skudai Surgical Centre (M) Sdn. Bhd.),Private,Johor Bahru,"Hospital Pakar Skudai (Skudai Surgical Centre (M) Sdn. Bhd.), Tingkat Bawah, No. 5 & 7, Jalan Ronggeng 2, Taman Skudai Baru, Johor Bahru, Johor, Malaysia"
Johor,Hospital Pakar Sultanah Fatimah,Public,Muar,"Hospital Pakar Sultanah Fatimah, Jalan Salleh, Muar, Johor, Malaysia"
Johor,Hospital Penawar,Private,Pasir Gudang,"Hospital Penawar, No. 17 & 18 (A-D), Pusat Perniagaan Pasir Gudang, Pasir Gudang, Johor, Malaysia"
Johor,Hospital Permai,Public,Johor Bahru,"Hospital Permai, Jalan Tampoi, Johor Bahru, Johor, Malaysia"
Johor,Hospital Pontian,Public,Pontian,"Hospital Pontian, Jalan Alsagoff, Pontian, Johor, Malaysia"
Johor,Hospital Segamat,Public,Segamat,"Hospital Segamat, KM 6 Jalan Genuang,, Segamat, Johor, Malaysia"
Johor,Hospital Sultan Ismail,Public,Johor Bahru,"Hospital Sultan Ismail, Jalan Persiaran Mutiara Emas Utama, Taman Miount Austin, Johor Bahru, Johor, Malaysia"
Johor,Hospital Sultanah Aminah,Public,Johor Bahru,"Hospital Sultanah Aminah, Johor Bahru, Johor Bahru, Johor, Malaysia"
Johor,Hospital Sultanah Nora Ismail,Public,Batu Pahat,"Hospital Sultanah Nora Ismail, Jalan Korma,83000 Batu Pahat, Batu Pahat, Johor, Malaysia"
Johor,Hospital Tangkak,Public,Tangkak,"Hospital Tangkak, Jalan Hospital,  Tangkak Muar, Tangkak, Johor, Malaysia"
Johor,Hospital Temenggong Seri Maharaja Tun Ibrahim,Public,Kulaijaya,"Hospital Temenggong Seri Maharaja Tun Ibrahim, Hospital Temenggong Seri Maharaja Tun Ibrahim, 81000 Kulai, Kulaijaya, Johor, Malaysia"
Johor,Jb Specialist Hospital,Private,Johor Bahru,"Jb Specialist Hospital, 38, 38-1 & 40, 40-1 Jalan Ros Merah 3/2, Taman Johor Jaya, Johor Bahru, Johor, Malaysia"
Johor,Johor Specialist Hospital,Private,Johor Bahru,"Johor Specialist Hospital, 39-B, Jalan Abdul Samad, Johor Bahru, Johor, Malaysia"
Johor,Kempas Medical Centre,Private,Johor Bahru,"Kempas Medical Centre, Lot Ptd 7522, Jalan Kempas Baru, Johor Bahru, Johor, Malaysia"
Johor,Kensington Green Specialist Centre Sdn. Bhd.,Private,Johor Bahru,"Kensington Green Specialist Centre Sdn. Bhd., No. 2, Jalan Ceria 20, Taman Nusa Indah, Iskandar Puteri, Johor Bahru, Johor, Malaysia"
Johor,Kluang Specialist Maternity Centre,Private,Kluang,"Kluang Specialist Maternity Centre, No. 2, 3, 4, Jalan Haji Manap Nordin, Kluang Baru, Kluang, Johor, Malaysia"
Johor,Kpj Bandar Dato’ Onn Specialist Hospital,Private,Johor Bahru,"Kpj Bandar Dato’ Onn Specialist Hospital, No 2, Jalan Bukit Mutiara, Taman Bukit Mutiara, Johor Bahru, Johor, Malaysia"
Johor,Kpj Bandar Maharani Specialist Hospital,Private,Muar,"Kpj Bandar Maharani Specialist Hospital, No. 73-1, Jalan Stadium, Muar, Johor, Malaysia"
Johor,Kpj Batu Pahat Specialist Hospital,Private,Batu Pahat,"Kpj Batu Pahat Specialist Hospital, No. 1, Jalan Mutiara Gading Utama 1, Taman Mutiara Gading, Batu Pahat, Johor, Malaysia"
Johor,Kpj Kluang Specialist Hospital,Private,Kluang,"Kpj Kluang Specialist Hospital, Ptd 91374, Jalan Saujana Utama, Taman Saujana Kluang, Mukim Kluang, Kluang, Johor, Malaysia"
Johor,Landmark Medical Centre,Private,Johor Bahru,"Landmark Medical Centre, Unit 33B, Level 33B, Menara Landmark, Jalan Ngee Heng, Johor Bahru, Johor, Malaysia"
Johor,Maria Hospital,Private,Johor Bahru,"Maria Hospital, Blok A, Wisma Maria, Jalan Ngee Heng, Johor Bahru, Johor, Malaysia"
Johor,Pantai Hospital Batu Pahat,Private,Batu Pahat,"Pantai Hospital Batu Pahat, No. 9S, Jalan Bintang Satu, Taman Koperasi Bahagia, Batu Pahat, Johor, Malaysia"
Johor,Pasir Gudang Specialist Hospital,Private,Pasir Gudang,"Pasir Gudang Specialist Hospital, Lot Ptd 204781, Jalan Persiaran Dahlia 2, Taman Bukit Dahlia, Pasir Gudang, Johor, Malaysia"
Johor,Pusat Pakar Bersalin Tebrau,Private,Johor Bahru,"Pusat Pakar Bersalin Tebrau, No. 2, Pusat Pakar Bersalin Tebrau, Jalan Kencana Emas 1/7, Kawasan Perindustrian Tebrau Iii, Johor Bahru, Johor, Malaysia"
Johor,Pusat Pakar Perbidanan Dan Wanita Perdana,Private,Skudai,"Pusat Pakar Perbidanan Dan Wanita Perdana, No. 51 & 52, Jalan Pendidikan 3, Taman Universiti, Skudai, Johor, Malaysia"
Johor,"Pusat Pakar Perbidanan, Sakit Puan Dan Kanak- Kanak",Private,Muar,"Pusat Pakar Perbidanan, Sakit Puan Dan Kanak- Kanak, No. 21, Jalan Sulaiman, Muar, Johor, Malaysia"
Johor,Pusat Pakar Sakit Puan Dan Perbidanan Khor & Loh Sdn. Bhd,Private,Skudai,"Pusat Pakar Sakit Puan Dan Perbidanan Khor & Loh Sdn. Bhd, No 145, 147 & 149-02, Jalan Bestari 1/5, Taman Nusa Bestari, Skudai, Johor, Malaysia"
Johor,Pusat Pakar Wanita Dan Perbidanan Johor,Private,Kluang,"Pusat Pakar Wanita Dan Perbidanan Johor, No 38-42, Jalan Cantik, Kluang, Johor, Malaysia"
Johor,Puteri Specialist Hospital,Private,Johor Bahru,"Puteri Specialist Hospital, No. 33, Jalan Tun Abdul Razak, (Susur 5), Johor Bahru, Johor, Malaysia"
Johor,Putra Specialist Hospital (Batu Pahat) Sdn. Bhd.,Private,Batu Pahat,"Putra Specialist Hospital (Batu Pahat) Sdn. Bhd., No. 1, Jalan Peserai, Batu Pahat, Johor, Malaysia"
Johor,Regency Specialist Hospital,Private,Masai,"Regency Specialist Hospital, No. 1, Jalan Suria, Bandar Seri Alam, Masai, Johor, Malaysia"
Kedah,Aurelius Hospital Alor Setar,Private,Alor Setar,"Aurelius Hospital Alor Setar, No. B-5, Persiaran Bandar Baru Mergong, Jalan Perusahaan 1, Bandar Baru Mergong, Alor Setar, Kedah, Malaysia"
Kedah,Hospital Baling,Public,Baling,"Hospital Baling, Jala Hospital, Baling, Kedah, Malaysia"
Kedah,Hospital Jitra,Public,Jitra,"Hospital Jitra, Jalan Changlun, Jitra Kedah, Jitra, Kedah, Malaysia"
Kedah,Hospital Kuala Nerang,Public,Kuala Nerang,"Hospital Kuala Nerang, Kuala Nerang, Kuala Nerang, Kedah, Malaysia"
Kedah,Hospital Kulim,Public,Kulim,"Hospital Kulim, Jalan Mahang, Kulim, Kulim, Kedah, Malaysia"
Kedah,Hospital Langkawi,Public,Langkawi,"Hospital Langkawi, Bukit Tekuh,Jalan Padang Maksirat, Langkawi, Kedah, Malaysia"
Kedah,Hospital Pendang,Public,Pendang,"Hospital Pendang, Kampung Manggol Pauh, 06700 Pendang, Kedah, Pendang, Kedah, Malaysia"
Kedah,Hospital Sik,Public,Sik,"Hospital Sik, 08200 Sik, Sik, Kedah, Malaysia"
Kedah,Hospital Sultan Abdul Halim,Public,Sungai Petani,"Hospital Sultan Abdul Halim, Jalan Lencongan Timur Bandar Amanjaya, Sungai Petani, Sungai Petani, Kedah, Malaysia"
Kedah,Hospital Sultanah Bahiyah,Public,Alor Setar,"Hospital Sultanah Bahiyah, KM 6, Jln Langgar, Alor Setar, Alor Setar, Kedah, Malaysia"
Kedah,Hospital Yan,Public,Yan,"Hospital Yan, Batu 25 Jalan Yan, Yan, Kedah, Malaysia"
Kedah,Ins Specialist Centre Sdn. Bhd.,Private,Alor Setar,"Ins Specialist Centre Sdn. Bhd., 640-641, Jalan Pintu Sepuluh, Alor Setar, Kedah, Malaysia"
Kedah,Kedah Medical Centre,Private,Alor Setar,"Kedah Medical Centre, Pumpong, Alor Setar, Kedah, Malaysia"
Kedah,Mahsuri Medical Centre (Mmc),Private,Jitra,"Mahsuri Medical Centre (Mmc), No. 1, 2 & 3, Jalan Mahsuri, 1C, Bandar Baru Darulaman, Jitra, Kedah, Malaysia"
Kedah,Metro Specialist Hospital,Private,Sungai Petani,"Metro Specialist Hospital, No 1, Lorong Metro, Sungai Petani, Kedah, Malaysia"
Kedah,Pantai Hospital Laguna Merbok,Private,Sungai Petani,"Pantai Hospital Laguna Merbok, 1, Lorong Blm 1/10, Bandar Laguna Merbok, Sungai Petani, Kedah, Malaysia"
Kedah,Pantai Hospital Sungai Petani,Private,Sungai Petani,"Pantai Hospital Sungai Petani, No. 1, Persiaran Cempaka, Bandar Amanjaya, Sungai Petani, Kedah, Malaysia"
Kedah,Puteri Ayu Maternity Centre,Private,Sungai Petani,"Puteri Ayu Maternity Centre, 10, Lorong 17, Taman Petani Jaya, Sungai Petani, Kedah, Malaysia"
Kedah,Putra Medical Centre,Private,Alor Setar,"Putra Medical Centre, 888, Jalan Sekerat, Off Jalan Putra, Alor Setar, Kedah, Malaysia"
Kelantan,Hospital Gua Musang,Public,Gua Musang,"Hospital Gua Musang, Bandar Baru, Gua Musang, Kelantan, Malaysia"
Kelantan,Hospital Jeli,Public,Jeli,"Hospital Jeli, 17600 Jeli, Jeli, Kelantan, Malaysia"
Kelantan,Hospital Machang,Public,Machang,"Hospital Machang, Jalan Pasir Puteh, Machang, Kelantan, Malaysia"
Kelantan,Hospital Pasir Mas,Public,Pasir Mas,"Hospital Pasir Mas, Jalan Meranti, Pasir Mas, Kelantan, Malaysia"
Kelantan,Hospital Raja Perempuan Zainab II,Public,Kota Bharu,"Hospital Raja Perempuan Zainab II, Jalan Hospital, Kota Bharu, Kelantan, Malaysia"
Kelantan,Hospital Sultan Ismail Petra,Public,Kuala Krai,"Hospital Sultan Ismail Petra, KM 6, Jalan Kuala Krai - Gua Musang, Kuala Krai, Kelantan, Malaysia"
Kelantan,Hospital Tanah Merah,Public,Tanah Merah,"Hospital Tanah Merah, 17500 Tanah Merah, Tanah Merah, Kelantan, Malaysia"
Kelantan,Hospital Tengku Anis,Public,Pasir Puteh,"Hospital Tengku Anis, Jalan Pasir Puteh, Pasir Puteh, Kelantan, Malaysia"
Kelantan,Hospital Tumpat,Public,Tumpat,"Hospital Tumpat, Jalan Kelaburan, Tumpat, Kelantan, Malaysia"
Kelantan,Kota Bharu Medical Centre,Private,Kota Bharu,"Kota Bharu Medical Centre, Pt 179 - 184, Jalan Sultan Yahya Petra, Lundang, Kota Bharu, Kelantan, Malaysia"
Kelantan,Kpj Perdana Specialist Hospital,Private,Kota Bharu,"Kpj Perdana Specialist Hospital, Lot Pt 37 & 600, Dan Lot 684 (Level 1, 2 & 3) Seksyen14, Jalan Bayam, Kota Bharu, Kelantan, Malaysia"
Kelantan,Pusat Perubatan An-Nisa’,Private,Kota Bharu,"Pusat Perubatan An-Nisa’, Ground Floor, Jkr 284, Jalan Sultan Ibrahim, Kota Bharu, Kelantan, Malaysia"
Melaka,Hospital Alor Gajah,Public,Alor Gajah,"Hospital Alor Gajah, Pejabat Hospital, Hospital Alor Gajah, Alor Gajah, Melaka, Malaysia"
Melaka,Hospital Jasin,Public,Jasin,"Hospital Jasin, 77000 Jasin, Jasin, Melaka, Malaysia"
Melaka,Hospital Melaka,Public,Bandar Melaka,"Hospital Melaka, Jalan Mufti Haji Khalil, Melaka, Melaka, Malaysia"
Melaka,Mahkota Medical Centre,Private,Bandar Melaka,"Mahkota Medical Centre , 3, Mahkota Melaka, Jalan Melaka, Melaka, Melaka, Malaysia"
Melaka,Oriental Melaka Straits Medical Centre,Private,Bandar Melaka,"Oriental Melaka Straits Medical Centre, Pusat Perubatan Klebang, Melaka, Melaka, Malaysia"
Melaka,Pantai Hospital Ayer Keroh,Private,Bandar Melaka,"Pantai Hospital Ayer Keroh, No. 2418-1, Km 8 Lebuh Ayer Keroh, Melaka, Melaka, Malaysia"
Melaka,Putra Specialist Hospital (Melaka) Sdn. Bhd.,Private,Bandar Melaka,"Putra Specialist Hospital (Melaka) Sdn. Bhd., 169, Jalan Bendahara, Melaka, Melaka, Malaysia"
Negeri Sembilan,Aurelius Hospital Negeri Sembilan,Private,Nilai,"Aurelius Hospital Negeri Sembilan, Pt 13717, Jalan Bbn 2/1, Nilai , Negeri Sembilan, Malaysia"
Negeri Sembilan,Cmh Specialist Hospital,Private,Seremban,"Cmh Specialist Hospital, Block A (Ground Floor) & Block B , Lot 3900, Jalan Tun Dr. Ismail, Seremban, Negeri Sembilan, Malaysia"
Negeri Sembilan,Columbia Asia Hospital – Seremban,Private,Seremban,"Columbia Asia Hospital – Seremban, 292 & Lot Pt 1904, Jalan Haruan 2, Oakland Commercial Centre, Seremban, Negeri Sembilan, Malaysia"
Negeri Sembilan,Hospital Jelebu,Public,Jelebu,"Hospital Jelebu, 71600 Jelebu, Jelebu, Negeri Sembilan, Malaysia"
Negeri Sembilan,Hospital Jempol,Public,Bandar Seri Jempol,"Hospital Jempol, Bandar Seri Jempol, Bandar Seri Jempol, Negeri Sembilan, Malaysia"
Negeri Sembilan,Hospital Port Dickson,Public,Port Dickson,"Hospital Port Dickson, KM 11, Jalan Pantai, Port Dickson, Negeri Sembilan, Malaysia"
Negeri Sembilan,Hospital Tampin,Public,Tampin,"Hospital Tampin, Jalan Haji Ahmad Zainuddin, Tampin, Tampin, Negeri Sembilan, Malaysia"
Negeri Sembilan,Hospital Tuanku Ampuan Najihah,Public,Kuala Pilah,"Hospital Tuanku Ampuan Najihah, KM 3 Jalan Melang, Kuala Pilah, Negeri Sembilan, Malaysia"
Negeri Sembilan,Hospital Tuanku Ja'afar Seremban,Public,Seremban,"Hospital Tuanku Ja'afar Seremban, Jalan Rasah, Seremban, Negeri Sembilan, Malaysia"
Negeri Sembilan,Kpj Seremban Specialist Hospital,Private,Seremban,"Kpj Seremban Specialist Hospital, Lot 6219 & 6220, Jalan Toman 1, Kemayan Square, Seremban, Negeri Sembilan, Malaysia"
Negeri Sembilan,Mawar Medical Centre,Private,Seremban,"Mawar Medical Centre, No. 71, Jalan Rasah, Seremban, Negeri Sembilan, Malaysia"
Negeri Sembilan,Salam Senawang Specialist Hospital,Private,Senawang,"Salam Senawang Specialist Hospital, No. 234-243, Jalan Lavender Heights 2, Lavender Business Square, Senawang, Negeri Sembilan, Malaysia"
Negeri Sembilan,Ucsi Hospital,Private,Port Dickson,"Ucsi Hospital, No 2, Avenue 3, Persiaran Springhill, Port Dickson, Negeri Sembilan, Malaysia"
Pahang,Aurelius Hospital Pahang,Private,Kuantan,"Aurelius Hospital Pahang, Lot 1, 3, 5 & 7 Wisma Muip, Jalan Gambut, Kuantan, Pahang, Malaysia"
Pahang,Darul Makmur Medical Centre Sdn. Bhd.,Private,Kuantan,"Darul Makmur Medical Centre Sdn. Bhd., B2-B60, Jalan Pinggiran Putra 4/3, Pinggiran Putra 4, Kuantan, Pahang, Malaysia"
Pahang,Hospital Bentong,Public,Bentong,"Hospital Bentong, 28700 Bentong, Bentong, Pahang, Malaysia"
Pahang,Hospital Jengka,Public,Maran,"Hospital Jengka, 26400 Bandar Jengka, Maran, Pahang, Malaysia"
Pahang,Hospital Jerantut,Public,Jerantut,"Hospital Jerantut, 27000 Jerantut, Jerantut, Pahang, Malaysia"
Pahang,Hospital Kuala Lipis,Public,Kuala Lipis,"Hospital Kuala Lipis, 27200 K.Lipis, Kuala Lipis, Pahang, Malaysia"
Pahang,Hospital Muadzam Shah,Public,Rompin,"Hospital Muadzam Shah, 26700 Muadzam Shah, Rompin, Pahang, Malaysia"
Pahang,Hospital Pekan,Public,Pekan,"Hospital Pekan, 26600 Pekan, Pekan, Pahang, Malaysia"
Pahang,Hospital Raub,Public,Raub,"Hospital Raub, Jalan Tengku Abd Samad, Raub, Pahang, Malaysia"
Pahang,Hospital Rompin,Public,Rompin,"Hospital Rompin, Jalan Kg Kolam Kuala Rompin
26800 Rompin
Pahang, Rompin, Pahang, Malaysia"
Pahang,Hospital Sultan Hj Ahmad Shah,Public,Temerloh,"Hospital Sultan Hj Ahmad Shah, Jalan Maran, Temerloh, Pahang, Malaysia"
Pahang,Hospital Sultanah Hajjah Kalsom,Public,Cameron Highlands,"Hospital Sultanah Hajjah Kalsom, Tanah Rata,, Cameron Highlands, Pahang, Malaysia"
Pahang,Hospital Tengku Ampuan Afzan,Public,Kuantan,"Hospital Tengku Ampuan Afzan, Jalan Air Putih, Kuantan, Pahang, Malaysia"
Pahang,Iium Medical Specialist Centre (Imsc),Private,Kuantan,"Iium Medical Specialist Centre (Imsc), Kulliyyah Of Medicine, International Islamic University Malaysia, Indera Mahkota, Kuantan, Pahang, Malaysia"
Pahang,Kmi Kuantan Medical Centre,Private,Kuantan,"Kmi Kuantan Medical Centre, Jalan Tun Razak, Bandar Indera Mahkota, Kuantan, Pahang, Malaysia"
Pahang,Kpj Pahang Specialist Hospital,Private,Kuantan,"Kpj Pahang Specialist Hospital, Lot 105703 (Pt 83065), Tanjung Lumpur, Kuantan, Pahang, Malaysia"
Perak,Anson Bay Medical Centre,Private,Teluk Intan,"Anson Bay Medical Centre, Lot 992, Batu 3,1/2, Jalan Maharajalela, Teluk Intan, Perak, Malaysia"
Perak,Apollo Medical Centre,Private,Taiping,"Apollo Medical Centre, No. 271, Jalan Taming Sari, Taiping, Perak, Malaysia"
Perak,Bernam River Ulu Group Hospital,Private,Ulu Bernam,"Bernam River Ulu Group Hospital, Ulu Bernam Estate, Ulu Bernam, Perak, Malaysia"
Perak,Columbia Asia Hospital – Taiping,Private,Taiping,"Columbia Asia Hospital – Taiping, No. 5, Jalan Perwira, Taiping, Perak, Malaysia"
Perak,Hospital Ar- Ridzuan,Private,Ipoh,"Hospital Ar- Ridzuan, A-1, B-G-3 & B-G-5, B-1-1 &B-1-3, Greentown Suria, Jalan Dato’ Seri Ahmad Said, Ipoh, Perak, Malaysia"
Perak,Hospital Bahagia Ulu Kinta,Public,Ulu Kinta,"Hospital Bahagia Ulu Kinta, Tanjong Rambutan, Ulu Kinta, Perak, Malaysia"
Perak,Hospital Batu Gajah,Public,Batu Gajah,"Hospital Batu Gajah, Jalan Changkat, Batu Gajah, Perak, Malaysia"
Perak,Hospital Changkat Melintang,Public,Bota,"Hospital Changkat Melintang, Lambor Kanan,Parit, Bota, Perak, Malaysia"
Perak,Hospital Fatimah,Private,Ipoh,"Hospital Fatimah, 1, Leboh Chew Peng Loon, Off Jalan Dato' Lau Pak Khuan, Ipoh Garden, Ipoh, Perak, Malaysia"
Perak,Hospital Gerik,Public,Grik,"Hospital Gerik, Jalan Intan, Grik, Perak, Malaysia"
Perak,Hospital Kampar,Public,Kampar,"Hospital Kampar, Jalan Hospital, Kampar, Perak, Malaysia"
Perak,Hospital Kuala Kangsar,Public,Kuala Kangsar,"Hospital Kuala Kangsar, Jalan Sultan Idris Shah 1, Kuala Kangsar, Perak, Malaysia"
Perak,Hospital Parit Buntar,Public,Parit Buntar,"Hospital Parit Buntar, Jalan Sempadan, Parit Buntar, Perak, Malaysia"
Perak,Hospital Raja Permaisuri Bainun,Public,Ipoh,"Hospital Raja Permaisuri Bainun, Jalan Hospital, Ipoh, Perak, Malaysia"
Perak,Hospital Selama,Public,Selama,"Hospital Selama, Jalan Taiping, Selama, Perak, Malaysia"
Perak,Hospital Seri Botani,Private,Ipoh,"Hospital Seri Botani, No. 3, Dataran Botani 2, Bandar Seri Botani, Ipoh, Perak, Malaysia"
Perak,Hospital Seri Manjung,Public,Seri Manjung,"Hospital Seri Manjung, Seri Manjung, Seri Manjung, Perak, Malaysia"
Perak,Hospital Slim River,Public,Slim River,"Hospital Slim River, , Slim River, Perak, Malaysia"
Perak,Hospital Sungai Siput,Public,Sungai Siput,"Hospital Sungai Siput, Jalan Felda Lasah, Sungai Siput, Perak, Malaysia"
Perak,Hospital Taiping,Public,Taiping,"Hospital Taiping, Jalan Taming Sari, Taiping, Perak, Malaysia"
Perak,Hospital Tapah,Public,Tapah,"Hospital Tapah, Jalan Temoh, Tapah, Perak, Malaysia"
Perak,Hospital Teluk Intan,Public,Teluk Intan,"Hospital Teluk Intan, Jalan Changkat Jong, Teluk Intan, Perak, Malaysia"
Perak,Hospital Universiti Tunku Abdul Rahman,Private,Kampar,"Hospital Universiti Tunku Abdul Rahman, Jalan Hospital Utar, Kampar, Perak, Malaysia"
Perak,Ipoh Specialist Hospital,Private,Ipoh,"Ipoh Specialist Hospital, 26, Jalan Raja Dihilir, Ipoh, Perak, Malaysia"
Perak,Jendarata Group Hospital,Private,Teluk Intan,"Jendarata Group Hospital, Jendarata Estate, Teluk Intan, Perak, Malaysia"
Perak,Klinik Bersalin Yasmin,Private,Lumut,"Klinik Bersalin Yasmin, No. 27 - 28, Persiaran Venice Sutera 1, Desa Manjung Raya, Lumut, Perak, Malaysia"
Perak,Kmc Medical Centre,Private,Ipoh,"Kmc Medical Centre, 20A, Jalan Chung Thye Phin, Ipoh, Perak, Malaysia"
Perak,Kpj Sri Manjung Specialist Hospital,Private,Sitiawan,"Kpj Sri Manjung Specialist Hospital, Lot 14777, Jalan Lumut, Sitiawan, Perak, Malaysia"
Perak,Pantai Hospital Ipoh,Private,Ipoh,"Pantai Hospital Ipoh, 126, Jalan Tambun, Ipoh, Perak, Malaysia"
Perak,Pantai Hospital Manjung,Private,Seri Manjung,"Pantai Hospital Manjung, Jalan Ppmp 1, Pusat Perniagaan Manjung Point, Seri Manjung, Perak, Malaysia"
Perak,Perak Community Specialist Hospital,Private,Ipoh,"Perak Community Specialist Hospital, No. 277, Jalan Raja Permaisuri Bainun, Ipoh, Perak, Malaysia"
Perak,Pusat Pakar Permata Raoofah,Private,Ipoh,"Pusat Pakar Permata Raoofah, No. 37, 39 & 41, Lengkuk Kledang Raya, Taman Kledang Jaya, Jalan Jelapang, Ipoh, Perak, Malaysia"
Perak,Sejati Maternity & Specialist Centre,Private,Setiawan,"Sejati Maternity & Specialist Centre, No. 20, Taman Sejati 1, Setiawan, Perak, Malaysia"
Perak,Sunway Medical Centre Ipoh,Private,Ipoh,"Sunway Medical Centre Ipoh, 2, Persiaran Sunway, Sunway City Ipoh, Ipoh, Perak, Malaysia"
Perak,Taiping Medical Centre,Private,Taiping,"Taiping Medical Centre, 45-49, Jalan Medan Taiping 2, Taiping, Perak, Malaysia"
Perlis,Hospital Tuanku Fauziah,Public,Kangar,"Hospital Tuanku Fauziah, Jalan Kolam, 01000 Kangar, Kangar, Perlis, Malaysia"
Perlis,Kpj Perlis Specialist Hospital (Hospital Pakar Kpj Perlis),Private,Kangar,"Kpj Perlis Specialist Hospital (Hospital Pakar Kpj Perlis), Lot 2550 & 2575, Pengkalan Asam, Mukim Seriab, Kangar, Perlis, Malaysia"
Pulau Pinang,Bagan Specialist Centre,Private,Butterworth,"Bagan Specialist Centre, Jalan Bagan Satu, Butterworth, Pulau Pinang, Malaysia"
Pulau Pinang,Dbm Hospital,Private,Seberang Perai,"Dbm Hospital, No 18 & 20, Jalan Cermai 1, Taman Cermai, Jalan Sama Gagah, Permatang Pauh, Seberang Perai, Pulau Pinang, Malaysia"
Pulau Pinang,Georgetown Specialist Hospital,Private,Georgetown,"Georgetown Specialist Hospital, No. 12-A, Jalan Masjid Negeri, Georgetown, Pulau Pinang, Malaysia"
Pulau Pinang,Gleneagles Hospital Penang,Private,Georgetown,"Gleneagles Hospital Penang, No. 1, Jalan Pangkor, Georgetown, Pulau Pinang, Malaysia"
Pulau Pinang,Hope Children Hospital – Gottlieb,Private,Georgetown,"Hope Children Hospital – Gottlieb, 25B, C & D, Jalan Gottlieb, Georgetown, Pulau Pinang, Malaysia"
Pulau Pinang,Hospital Balik Pulau,Public,Balik Pulau,"Hospital Balik Pulau, Balik Pulau, Balik Pulau, Pulau Pinang, Malaysia"
Pulau Pinang,Hospital Bukit Mertajam,Public,Bukit Mertajam,"Hospital Bukit Mertajam, Jalan Kulim, Bukit Mertajam, Bukit Mertajam, Pulau Pinang, Malaysia"
Pulau Pinang,"Hospital Kebajikan Kek Lok Si 
Kek Lok Si Charitable Hospital",Private,Pulau Pinang,"Hospital Kebajikan Kek Lok Si 
Kek Lok Si Charitable Hospital, No. 623, Jalan Balik Pulau, Ayer Itam, Pulau Pinang, Pulau Pinang, Malaysia"
Pulau Pinang,Hospital Kepala Batas,Public,Kepala Batas,"Hospital Kepala Batas, Jalan Bertam, Kepala Batas, Kepala Batas, Pulau Pinang, Malaysia"
Pulau Pinang,Hospital Lam Wah Ee,Private,Georgetown,"Hospital Lam Wah Ee, 141, Jalan Tan Sri The Ewe Lim, Georgetown, Pulau Pinang, Malaysia"
Pulau Pinang,Hospital Pulau Pinang,Public,Pulau Pinang,"Hospital Pulau Pinang, Jalan Residensi, Pulau Pinang, Pulau Pinang, Malaysia"
Pulau Pinang,Hospital Seberang Jaya,Public,Perai,"Hospital Seberang Jaya, Jln Tun Hussein Onn, Perai, Perai, Pulau Pinang, Malaysia"
Pulau Pinang,Hospital Sungai Bakap,Public,Sungai Jawi,"Hospital Sungai Bakap, Sungai Jawi, Seberang Perai Selatan, Sungai Jawi, Pulau Pinang, Malaysia"
Pulau Pinang,Island Hospital,Private,Georgetown,"Island Hospital, No. 308, Jalan Macalister, Georgetown, Pulau Pinang, Malaysia"
Pulau Pinang,Kpj Penang Specialist Hospital,Private,Bukit Mertajam,"Kpj Penang Specialist Hospital, 570, Jalan Perda Utama, Bandar Perda, Bukit Mertajam, Pulau Pinang, Malaysia"
Pulau Pinang,Ks Wan & Liow Specialist Maternity Centre Sdn Bhd,Private,Bukit Mertajam,"Ks Wan & Liow Specialist Maternity Centre Sdn Bhd, No. 17 & 19, Lorong Tembikai 6, Pusat Komersial Sri Rambai, Bukit Mertajam, Pulau Pinang, Malaysia"
Pulau Pinang,Loh Guan Lye Specialists Centre,Private,Georgetown,"Loh Guan Lye Specialists Centre, 238, Macalister Dan 19 & 21, Jalan Logan , Georgetown , Pulau Pinang, Malaysia"
Pulau Pinang,Mount Miriam Cancer Hospital,Private,Tanjung Bungah,"Mount Miriam Cancer Hospital, 23, Jalan Bulan, Fettes Park, Tanjung Bungah, Pulau Pinang, Malaysia"
Pulau Pinang,Northern Heart Hospital Penang,Private,Georgetown,"Northern Heart Hospital Penang , No 2 Lebuhraya Peel, Seksyen 4, Georgetown, Pulau Pinang, Malaysia"
Pulau Pinang,Optimax Eye Specialist Hospital (Penang),Private,Georgetown,"Optimax Eye Specialist Hospital (Penang), Tingkat Bawah, No. 223, Jalan Masjid Negeri, Georgetown, Pulau Pinang, Malaysia"
Pulau Pinang,Pantai Hospital Penang,Private,Bayan Lepas,"Pantai Hospital Penang, 82, Jalan Tengah, Bayan Baru, Bayan Lepas, Pulau Pinang, Malaysia"
Pulau Pinang,Peace Medical Centre,Private,Georgetown,"Peace Medical Centre, 81, Lorong Selamat, Georgetown, Pulau Pinang, Malaysia"
Pulau Pinang,Penang Adventist Hospital,Private,Pulau Pinang,"Penang Adventist Hospital, 465, Jalan Burma, Pulau Pinang, Pulau Pinang, Malaysia"
Pulau Pinang,Questra Bio - Clinical Research Centre,Private,Permatang Pauh,"Questra Bio - Clinical Research Centre, Aras Bawah (No.6) Dan Aras 1&2 ( No.2A,No.6 Dan No.8) Jalan Desa Pauh, Permatang Pauh, Pulau Pinang, Malaysia"
Pulau Pinang,Sunway Medical Centre Penang,Private,Perai,"Sunway Medical Centre Penang, 3106, Lebuh Tenggiri 2, Pusat Bandar Seberang Jaya, Perai, Pulau Pinang, Malaysia"
Sabah,Gleneagles Hospital Kota Kinabalu,Private,Kota Kinabalu,"Gleneagles Hospital Kota Kinabalu, Riverson @ Sembulan, Blok A-1, Lorong Riverson @ Sembulan, Kota Kinabalu, Sabah, Malaysia"
Sabah,Hospital Beaufort,Public,Beaufort,"Hospital Beaufort, Peti Surat 40, Beaufort, Sabah, Malaysia"
Sabah,Hospital Beluran,Public,Beluran,"Hospital Beluran, Karung Berkunci No : 02, Beluran, Sabah, Malaysia"
Sabah,Hospital Duchess Of Kent,Public,Sandakan,"Hospital Duchess Of Kent, KM 3.2, Jalan Utara, Sandakan, Sabah, Malaysia"
Sabah,Hospital Keningau,Public,Keningau,"Hospital Keningau, Peti Surat 11, Keningau, Sabah, Malaysia"
Sabah,Hospital Kinabatangan,Public,Kinabatangan,"Hospital Kinabatangan, W.D.T 200, Kinabatangan, Sabah, Malaysia"
Sabah,Hospital Kota Belud,Public,Kota Belud,"Hospital Kota Belud, Peti Surat 159, Kota Belud, Sabah, Malaysia"
Sabah,Hospital Kota Marudu,Public,Kota Marudu,"Hospital Kota Marudu, Peti Surat 255, Kota Marudu, Sabah, Malaysia"
Sabah,Hospital Kuala Penyu,Public,Kuala Penyu,"Hospital Kuala Penyu, W.D.T. 35, Kuala Penyu, Sabah, Malaysia"
Sabah,Hospital Kudat,Public,Kudat,"Hospital Kudat, Peti Surat 22, Kudat, Sabah, Malaysia"
Sabah,Hospital Kunak,Public,Kunak,"Hospital Kunak, W.D.T. 150, Kunak, Sabah, Malaysia"
Sabah,Hospital Lahad Datu,Public,Lahad Datu,"Hospital Lahad Datu, Peti Surat 60065, Lahad Datu, Sabah, Malaysia"
Sabah,Hospital Mesra Bukit Padang,Public,Kota Kinabalu,"Hospital Mesra Bukit Padang, Peti Surat 11342, Kota Kinabalu, Sabah, Malaysia"
Sabah,Hospital Papar,Public,Papar,"Hospital Papar, Peti Surat No. 6,, Papar, Sabah, Malaysia"
Sabah,Hospital Pitas,Public,Pitas,"Hospital Pitas, Peti Surat 88, Pitas, Sabah, Malaysia"
Sabah,Hospital Queen Elizabeth,Public,Kota Kinabalu,"Hospital Queen Elizabeth, Karung Berkunci N0.2029, Kota Kinabalu, Sabah, Malaysia"
Sabah,Hospital Queen Elizabeth II,Public,Kota Kinabalu,"Hospital Queen Elizabeth II, Lorong Bersatu, Jalan Damai Luyang, Kota Kinabalu, Kota Kinabalu, Sabah, Malaysia"
Sabah,Hospital Ranau,Public,Ranau,"Hospital Ranau, Peti Surat 65, Ranau, Sabah, Malaysia"
Sabah,Hospital Semporna,Public,Semporna,"Hospital Semporna, Peti Surat 80, Semporna, Sabah, Malaysia"
Sabah,Hospital Sipitang,Public,Sipitang,"Hospital Sipitang, Peti Surat 250, Sipitang, Sabah, Malaysia"
Sabah,Hospital Tambunan,Public,Tambunan,"Hospital Tambunan, Peti Surat 10, Tambunan, Sabah, Malaysia"
Sabah,Hospital Tawau,Public,Tawau,"Hospital Tawau, Peti Surat 80, Tawau, Sabah, Malaysia"
Sabah,Hospital Tenom,Public,Tenom,"Hospital Tenom, Peti surat 97, Tenom, Sabah, Malaysia"
Sabah,Hospital Tuaran,Public,Tuaran,"Hospital Tuaran, Peti surat 996, 89207 Tuaran Sabah, Tuaran, Sabah, Malaysia"
Sabah,Hospital Wanita dan Kanak-Kanak Sabah,Public,Kota Kinabalu,"Hospital Wanita dan Kanak-Kanak Sabah, Karung Berkunci 187, Kota Kinabalu, Sabah, Malaysia"
Sabah,Jesselton Medical Centre Sdn. Bhd.,Private,Kota Kinabalu,"Jesselton Medical Centre Sdn. Bhd., Metro Town, Jalan Bunga Ulam Raja, Jalan Lintas, Off Jalan Tuaran, Kota Kinabalu, Sabah, Malaysia"
Sabah,Kmi Tawau Medical Centre (Tawau Specialist Hospital),Private,Tawau,"Kmi Tawau Medical Centre (Tawau Specialist Hospital), Tb 4551, Jalan Abaca, Tawau, Sabah, Malaysia"
Sabah,Kpj Sabah Specialist Hospital,Private,Kota Kinabalu,"Kpj Sabah Specialist Hospital, Lot No. 2, Off Jalan Damai, Luyang, Kota Kinabalu, Sabah, Malaysia"
Sabah,Rafflesia Medical Centre Sdn. Bhd.,Private,Kota Kinabalu,"Rafflesia Medical Centre Sdn. Bhd., Lot 4-8, Millenium Commercial Centre, Off Jalan Lintas, Kota Kinabalu, Sabah, Malaysia"
Sabah,Tawau Specialist Medical Centre Sabah Sdn. Bhd.,Private,Tawau,"Tawau Specialist Medical Centre Sabah Sdn. Bhd., No. 3680 - 3692, Tanah Lot 107525664 - 107525780, Tinagat Plaza Mile 2.5, Jalan Bunga Raya, Off Jalan Apas, Tawau, Sabah, Malaysia"
Sabah,Utama Medical Centre,Private,Sandakan,"Utama Medical Centre, Lot 16 – 20, Blok B1, Utama Place, Phase 5, Batu  6, Jalan Utara, Sandakan, Sabah, Malaysia"
Sarawak,Bintulu Medical Centre,Private,Bintulu,"Bintulu Medical Centre, Lot 6009, Block 31, Kemena Land District, Bintulu, Sarawak, Malaysia"
Sarawak,Borneo Medical Centre,Private,Kuching,"Borneo Medical Centre, Lot 10992, Section 64, Kuching Town Land District, Jalan Tun Jugah, Kuching, Sarawak, Malaysia"
Sarawak,Borneo Medical Centre (Miri),Private,Miri,"Borneo Medical Centre (Miri), Lot 1959, Block 10, Mcld, Jalan Cahaya, Off Jalan Miri-Bintulu, Miri, Sarawak, Malaysia"
Sarawak,Columbi Asia Hospital-Miri,Private,Miri,"Columbi Asia Hospital-Miri, Lot 1035-1039, 1St Floor & 2Nd Floor Lot 1040 Dan Lot 1041-1042, Jalan Bulan Sabit, Miri, Sarawak, Malaysia"
Sarawak,Helen Ngu Women Hospital,Private,Kuching,"Helen Ngu Women Hospital, Tingkat 1, No. 251, Lot 2579, Central Park Commercial Centre, 3Rd Mile, Kuching, Sarawak, Malaysia"
Sarawak,Hospital Bau,Public,Bau,"Hospital Bau, Batu 1 ½,  Jalan Bau-Lundu, Bau, Sarawak, Malaysia"
Sarawak,Hospital Betong,Public,Betong,"Hospital Betong, Jalan Betong, Betong, Sarawak, Malaysia"
Sarawak,Hospital Bintulu,Public,Bintulu,"Hospital Bintulu, Jalan Nyabau, Bintulu, Sarawak, Malaysia"
Sarawak,Hospital Dalat,Public,Dalat,"Hospital Dalat, Jalan Oya-Dalat, Dalat, Sarawak, Malaysia"
Sarawak,Hospital Daro,Public,Daro,"Hospital Daro, Jalan Itol, Daro, Sarawak, Malaysia"
Sarawak,Hospital Kanowit,Public,Kanowit,"Hospital Kanowit, Jalan Kanowit/ Durin, Kanowit, Sarawak, Malaysia"
Sarawak,Hospital Kapit,Public,Kapit,"Hospital Kapit, Jalan Memora, Kapit, Sarawak, Malaysia"
Sarawak,Hospital Lawas,Public,Lawas,"Hospital Lawas, Jalan Hospital, Lawas, Sarawak, Malaysia"
Sarawak,Hospital Limbang,Public,Limbang,"Hospital Limbang, Jalan Pandaruan, Limbang, Sarawak, Malaysia"
Sarawak,Hospital Lundu,Public,Lundu,"Hospital Lundu, Jalan Sekambal, Lundu, Sarawak, Malaysia"
Sarawak,Hospital Marudi,Public,Marudi,"Hospital Marudi, Jalan Pungor, Marudi, Sarawak, Malaysia"
Sarawak,Hospital Miri,Public,Miri,"Hospital Miri, Jalan Cahaya, Miri, Sarawak, Malaysia"
Sarawak,Hospital Mukah,Public,Mukah,"Hospital Mukah, Jalan Haji Mohamed Pauzi, Mukah, Sarawak, Malaysia"
Sarawak,Hospital Rajah Charles Brooke Memorial,Public,Kuching,"Hospital Rajah Charles Brooke Memorial, Bt 13, Jalan Puncak Borneo, Kota Padawan, Kuching, Sarawak, Malaysia"
Sarawak,Hospital Saratok,Public,Saratok,"Hospital Saratok, KM 1, Jalan Saratok, Saratok, Sarawak, Malaysia"
Sarawak,Hospital Sarikei,Public,Sarikei,"Hospital Sarikei, Jalan Rentap, Sarikei, Sarawak, Malaysia"
Sarawak,Hospital Sentosa,Public,Kuching,"Hospital Sentosa, Batu 7, Jalan Penenrisen, Kuching, Sarawak, Malaysia"
Sarawak,Hospital Serian,Public,Serian,"Hospital Serian, 94700 Serian, Serian, Sarawak, Malaysia"
Sarawak,Hospital Sibu,Public,Sibu,"Hospital Sibu, Batu 5 ½,  Jalan Ulu Oya, Sibu, Sarawak, Malaysia"
Sarawak,Hospital Simunjan,Public,Simunjan,"Hospital Simunjan, Jalan Gunung Ngeli, Simunjan, Sarawak, Malaysia"
Sarawak,Hospital Sri Aman,Public,Sri Aman,"Hospital Sri Aman, Jalan Hospital, Sri Aman, Sarawak, Malaysia"
Sarawak,Hospital Umum Sarawak,Public,Kuching,"Hospital Umum Sarawak, Jalan Hospital, Kuching, Sarawak, Malaysia"
Sarawak,Kemena Pacific Hospital,Private,Bintulu,"Kemena Pacific Hospital, Lot 3582 & 3583, Blok 26, Kemena Land District, Jalan Tan Sri Ikhwan, Tanjung Kidurong, Bintulu, Sarawak, Malaysia"
Sarawak,Kpj Kuching Specialist Hospital,Private,Kuching,"Kpj Kuching Specialist Hospital, Lot 18807, Block 11, Muara Tebas Land District, Kuching, Sarawak, Malaysia"
Sarawak,Kpj Miri Specialist Hospital,Private,Miri,"Kpj Miri Specialist Hospital, Lot 8836 (Part Of Lot 6183 And 6186), Block 11, Kuala Baram Land District, Off Tudan Kuala Baram Link Road, Bandar Baru Permy Jaya, Miri, Sarawak, Malaysia"
Sarawak,Miri City Medical Centre,Private,Miri,"Miri City Medical Centre, Lot 916-920 & 1202-1203, Jalan Hokkien, Miri, Sarawak, Malaysia"
Sarawak,Normah Medical Specialist Centre,Private,Kuching,"Normah Medical Specialist Centre, Lot 937, Section 30, Ktld, Jalan Tun Abdul Rahman Yakub, Petra Jaya, Kuching, Sarawak, Malaysia"
Sarawak,Pusat Jantung Sarawak,Public,Samarahan,"Pusat Jantung Sarawak, Jalan Expressway Kota Samarahan
94300 Samarahan
Sarawak, Samarahan, Sarawak, Malaysia"
Sarawak,Rejang Medical Centre,Private,Sibu,"Rejang Medical Centre, Ground Floor, No. 27, 29 & 31, 1St, 2Nd & 3Rd Floor, No. 21, 23, 25, 27, 29, 31, 33, 35& 37, Jalan Dr. Wong Soon Kai (Jalan Pedada), Sibu, Sarawak, Malaysia"
Sarawak,Sibu Specialist Medical Centre,Private,Sibu,"Sibu Specialist Medical Centre, No. 52A-G, Brooke Drive, Sibu, Sarawak, Malaysia"
Sarawak,Timberland Medical Centre,Private,Kuching,"Timberland Medical Centre, Lot 5160-5169 & 7477-7486, Block 16, Kcld, 2½Mile, Jalan Rock, Kuching, Sarawak, Malaysia"
Selangor,Ampang Puteri Specialist Hospital,Private,Ampang,"Ampang Puteri Specialist Hospital, No.1, Jalan Mamanda 9, Taman Dato' Ahmad Razali, Ampang, Selangor, Malaysia"
Selangor,Ara Damansara Medical Centre,Private,Shah Alam,"Ara Damansara Medical Centre, 2, Jalan Lapangan Terbang, Seksyen U2, Shah Alam, Selangor, Malaysia"
Selangor,Assunta Hospital,Private,Petaling Jaya,"Assunta Hospital, Jalan Templer, Petaling Jaya, Selangor, Malaysia"
Selangor,Avisena Specialist Hospital,Private,Shah Alam,"Avisena Specialist Hospital, No. 4, Jalan Ikhtisas, Seksyen 14, Shah Alam, Selangor, Malaysia"
Selangor,Avisena Women’S & Children’S Specialist Hospital,Private,Shah Alam,"Avisena Women’S & Children’S Specialist Hospital, No. 3, Jalan Perdagangan 14/4, Seksyen 14, Shah Alam, Selangor, Malaysia"
Selangor,Beacon Hospital,Private,Petaling Jaya,"Beacon Hospital, 1, Jalan 215, Seksyen 51, Off Jalan Templer, Petaling Jaya, Selangor, Malaysia"
Selangor,Britannia Women Specialist Centre,Private,Kajang,"Britannia Women Specialist Centre, No. 65-67, Aras Bawah, Aras 1 Dan Aras 2, Jalan Tks 1, Taman Kajang Sentral, Kajang, Selangor, Malaysia"
Selangor,Bukit Tinggi Medical Centre,Private,Klang,"Bukit Tinggi Medical Centre, Lot 83211, Persiaran Batu Nilam 9/Ks6, Bandar Bukit Tinggi, Klang, Selangor, Malaysia"
Selangor,Colombia Hospital,Private,Puchong,"Colombia Hospital, No. 1, Lebuh Puteri, Bandar Puteri Puchong, Puchong, Selangor, Malaysia"
Selangor,Columbia Asia Hospital,Private,Cheras,"Columbia Asia Hospital, Lot 33107, Jalan Suakasih, Cheras, Selangor, Malaysia"
Selangor,Columbia Asia Hospital,Private,Klang,"Columbia Asia Hospital, Pt 71153, Jalan Mahkota 1/Ku2, Mutiara Bukit Raja 2, Km 2, Off Jalan Meru, Klang, Selangor, Malaysia"
Selangor,Columbia Asia Hospital,Private,Petaling Jaya,"Columbia Asia Hospital, Lot 69, Jalan 13/6, Seksyen 13, Petaling Jaya, Selangor, Malaysia"
Selangor,Columbia Asia Hospital,Private,Shah Alam,"Columbia Asia Hospital, No. 3, Persiaran Anggerik Eria, Bukit Rimau, Seksyen 32, Shah Alam, Selangor, Malaysia"
Selangor,Daehan Rehabilitation Hospital Putrajaya,Private,Putrajaya,"Daehan Rehabilitation Hospital Putrajaya, Block B, Two Ioi Square, Ioi Resort, Putrajaya, Selangor, Malaysia"
Selangor,Hospital Ampang,Public,Ampang,"Hospital Ampang, Jalan Mewah Utara, Ampang, Selangor, Malaysia"
Selangor,Hospital Banting,Public,Banting,"Hospital Banting, Jalan Sultan Alam Shah, Banting, Selangor, Malaysia"
Selangor,Hospital Bersalin & Poliklinik Pusrawi Pusrawi Corporation Sdn. Bhd. Kota Damansara,Private,Petaling Jaya,"Hospital Bersalin & Poliklinik Pusrawi Pusrawi Corporation Sdn. Bhd. Kota Damansara, No. 22, Tingkat Bawah & Tingkat 1, Jalan Pekaka 8/3, Seksyen 8, Petaling Jaya, Selangor, Malaysia"
Selangor,Hospital Bersalin Razif,Private,Klang,"Hospital Bersalin Razif, No. 33, 35, 37 & 39, Jalan Sri Sarawak, 20A/Ks2, Taman Sri Andalas, Klang, Selangor, Malaysia"
Selangor,Hospital Islam Az-Zahrah,Private,Bandar Baru Bangi,"Hospital Islam Az-Zahrah, No. 24, 26, 28, 30, 32 & 34, Medan Pusat Bandar 1, Seksyen 9, Bandar Baru Bangi, Selangor, Malaysia"
Selangor,Hospital Kajang,Public,Kajang,"Hospital Kajang, Jalan Semenyih, Kajang, Selangor, Malaysia"
Selangor,Hospital Kuala Kubu Bharu,Public,Kuala Kubu Bharu,"Hospital Kuala Kubu Bharu, Jalan Hospital, Kuala Kubu Bharu, Selangor, Malaysia"
Selangor,Hospital Mata Nasional Tun Hussein Onn (The Tun Hussein Onn National Eye Hospital),Private,Petaling Jaya,"Hospital Mata Nasional Tun Hussein Onn (The Tun Hussein Onn National Eye Hospital), Lot 2, Lorong Utara B, Petaling Jaya, Selangor, Malaysia"
Selangor,Hospital Orang Asli,Public,Gombak,"Hospital Orang Asli, KM 24, Jalan Pahang Lama, 53100 Gombak, Selangor, Gombak, Selangor, Malaysia"
Selangor,Hospital Pakar An-Nur Specialist Hospital,Private,Bandar Baru Bangi,"Hospital Pakar An-Nur Specialist Hospital, Jalan Gerbang Wawasan 1, Seksyen 15, Bandar Baru Bangi, Selangor, Malaysia"
Selangor,Hospital Picaso,Private,Petaling Jaya,"Hospital Picaso, No 110, Jalan Professor Khoo Kay Kim, Seksyen 19, Petaling Jaya, Selangor, Malaysia"
Selangor,Hospital Rawatan Lanjutan Columbia Asia (Columbia Asia Extended Care Hospital),Private,Shah Alam,"Hospital Rawatan Lanjutan Columbia Asia (Columbia Asia Extended Care Hospital), Lot No. 2, Jalan Baung 17/22, Seksyen 17, Shah Alam, Selangor, Malaysia"
Selangor,Hospital Regen Rehab,Private,Petaling Jaya,"Hospital Regen Rehab, No.  9, Jalan  13/4, Petaling Jaya, Selangor, Malaysia"
Selangor,Hospital Selayang,Public,Batu Caves,"Hospital Selayang, Lebuhraya Selayang-Kepong, Batu Caves, Selangor, Malaysia"
Selangor,Hospital Serdang,Public,Kajang,"Hospital Serdang, Jalan Puchong, Kajang, Selangor, Malaysia"
Selangor,Hospital Shah Alam,Public,Shah Alam,"Hospital Shah Alam, Hospital Shah Alam
Persiaran Kayangan, Seksyen 7
40000 Shah Alam
Selangor, Shah Alam, Selangor, Malaysia"
Selangor,Hospital Sungai Buloh,Public,Sungai Buluh,"Hospital Sungai Buloh, Jalan Hospital, Sungai Buluh, Selangor, Malaysia"
Selangor,Hospital Tanjung Karang,Public,Tanjung Karang,"Hospital Tanjung Karang, Tanjung Karang, Tanjung Karang, Selangor, Malaysia"
Selangor,Hospital Tengku Ampuan Jemaah,Public,Sabak Bernam,"Hospital Tengku Ampuan Jemaah, 45200 Sabak Bernam, Sabak Bernam, Selangor, Malaysia"
Selangor,Hospital Tengku Ampuan Rahimah,Public,Klang,"Hospital Tengku Ampuan Rahimah, Jalan Langat,41200 Klang, Klang, Selangor, Malaysia"
Selangor,Hospital Umra,Private,Shah Alam,"Hospital Umra, Tingkat 1 & 2, No. 14, 16, & 18, Jalan Bola Tampar 13/14, Seksyen 13, Shah Alam, Selangor, Malaysia"
Selangor,Hospital Wanita Dan Kanak-Kanak Andorra Women & Children Hospital,Private,Seri Kembangan,"Hospital Wanita Dan Kanak-Kanak Andorra Women & Children Hospital, No 19, Jalan Utama Suria Tropika 1, Taman Suria Tropika, Seri Kembangan, Selangor, Malaysia"
Selangor,Hospital Wanita Metro,Private,Banting,"Hospital Wanita Metro, No. 22-26, Jalan Emas 1, Bandar Sungai Emas, Sungai Manggis, Banting, Selangor, Malaysia"
Selangor,Hospital Wanita Metro,Private,Klang,"Hospital Wanita Metro, No. 32-38, Jalan Pasar, Klang, Selangor, Malaysia"
Selangor,Hospital Wanita Metro,Private,Kuala Selangor,"Hospital Wanita Metro, No. 33, 35, 37 & 39, Jalan Rhu 1, Taman Rhu, Off Jalan Kelang, Kuala Selangor, Selangor, Malaysia"
Selangor,Jmc Specialist Medical Centre,Private,Klang,"Jmc Specialist Medical Centre, No. 80, Jalan Telok Gadong, Di Persiaran Raja Muda Musa, Klang, Selangor, Malaysia"
Selangor,Kajang Plaza Medical Centre,Private,Kajang,"Kajang Plaza Medical Centre, No. 35, 36, 33B, 34B, 35B, 36B Dan 36C, Jalan Dato' Seri Alagendra 2, Kajang Plaza, Kajang, Selangor, Malaysia"
Selangor,Klinik Pakar Wanita Dan Bersalin Subang Permai,Private,Shah Alam,"Klinik Pakar Wanita Dan Bersalin Subang Permai, No 19, Jalan Alfa Fu 6/F, Pusat Perdagangan Subang Permai, Seksyen U6, Shah Alam, Selangor, Malaysia"
Selangor,Klinik Pakar Wanita Dan Keluarga Kapar Indah,Private,Klang,"Klinik Pakar Wanita Dan Keluarga Kapar Indah, 2, Jalan Harapan 3, Sungai Kapar Indah, Klang, Selangor, Malaysia"
Selangor,Klinik Pakar Wanita Sheela Sdn. Bhd.,Private,Klang,"Klinik Pakar Wanita Sheela Sdn. Bhd., No 36, 38 & 40, Jalan Batai Laut 3, Kawasan 16, Taman Intan, Klang, Selangor, Malaysia"
Selangor,Kmi Kelana Jaya Medical Centre,Private,Petaling Jaya,"Kmi Kelana Jaya Medical Centre, No. 1, Fas Business Avenue, Jalan Perbandaran Ss7, Kelana Jaya, Petaling Jaya, Selangor, Malaysia"
Selangor,Ko Specialist Medical Centre,Private,Klang,"Ko Specialist Medical Centre, 6 – 12, Tingkat Bawah, Jalan Temoh, Off Jalan Goh Hock Huat, Klang, Selangor, Malaysia"
Selangor,Kpj Damansara Specialist Hospital,Private,Petaling Jaya,"Kpj Damansara Specialist Hospital, No. 119, Jalan Ss 20/10, Damansara Utama, Petaling Jaya, Selangor, Malaysia"
Selangor,Kpj Kajang Specialist Hospital,Private,Kajang,"Kpj Kajang Specialist Hospital, Batu 14, Jalan Cheras, Kajang, Selangor, Malaysia"
Selangor,Kpj Klang Specialist Hospital,Private,Klang,"Kpj Klang Specialist Hospital, No. 102, Persiaran Rajawali/Ku1, Bandar Baru Klang, Klang, Selangor, Malaysia"
Selangor,Kpj Kuala Selangor Specialist Hospital,Private,Selangor,"Kpj Kuala Selangor Specialist Hospital, No.1 Jalan Peninsula Tanjung, Peninsula Utama, Selangor, Selangor, Malaysia"
Selangor,Kpj Rawang Specialist Hospital (Hospital Pakar Kpj Rawang),Private,Rawang,"Kpj Rawang Specialist Hospital (Hospital Pakar Kpj Rawang), Jalan Rawang, Bandar Baru Rawang, Rawang, Selangor, Malaysia"
Selangor,Kpj Selangor Specialist Hospital,Private,Shah Alam,"Kpj Selangor Specialist Hospital, Lot 1, Jalan Singa 20/1, Seksyen 20, Shah Alam, Selangor, Malaysia"
Selangor,Kpmc Puchong Specialist Centre,Private,Puchong,"Kpmc Puchong Specialist Centre, No. 1 & 3, Jalan Puteri 2/1, Bandar Puteri Puchong, Puchong, Selangor, Malaysia"
Selangor,Mahsa Specialist Hospital (Hospital Pakar Mahsa),Private,Selangor,"Mahsa Specialist Hospital (Hospital Pakar Mahsa), Jalan Sp 1/3, Bandar Saujana Putra, Jenjarom, Selangor, Selangor, Malaysia"
Selangor,Msu Medical Centre,Private,Shah Alam,"Msu Medical Centre, No. 4 (Pt No. 1108) Persiaran Olahraga, Shah Alam, Selangor, Malaysia"
Selangor,Ohana Specialist Hospital,Private,Kuala Lumpur,"Ohana Specialist Hospital, No. 9, 11, 13-1 & 13-2 Jalan Seri Rejang, Rampai Business Park South, Kuala Lumpur, Selangor, Malaysia"
Selangor,Pantai Hospital Klang,Private,Klang,"Pantai Hospital Klang, Lot 5921, Persiaran Raja Muda Musa, Klang, Selangor, Malaysia"
Selangor,Pusat Kawalan Kusta Negara,Public,Sungai Buluh,"Pusat Kawalan Kusta Negara, Sungai Buluh, Sungai Buluh, Selangor, Malaysia"
Selangor,Pusat Pakar Ortopedik Osc Orthopaedic Specialist Centre,Private,Subang Jaya,"Pusat Pakar Ortopedik Osc Orthopaedic Specialist Centre, G-1-1 To G-6-1 Damen Usj, Persiaran Kewajipan, Usj 1, Subang Jaya, Selangor, Malaysia"
Selangor,Pusat Perubatan Damansara Damai,Private,Petaling Jaya,"Pusat Perubatan Damansara Damai, Tingkat Bawah, Blok B, 002- 005, Jalan Pju 10/2A, Pju10, Damansara Damai, Petaling Jaya, Selangor, Malaysia"
Selangor,Pusat Perubatan Joe (Klinik Wanita Dan Kanak-Kanak),Private,Ampang,"Pusat Perubatan Joe (Klinik Wanita Dan Kanak-Kanak), 3G & 5G, Jalan Wawasan 4/1, Bandar Baru Ampang, Ampang, Selangor, Malaysia"
Selangor,Pusat Perubatan Pakar Sri Kota,Private,Klang,"Pusat Perubatan Pakar Sri Kota, Jalan Mohet, Klang, Selangor, Malaysia"
Selangor,Putra Medical Centre,Private,Sungai Buloh,"Putra Medical Centre, 43, 43A, 45, 45A, 47, 47A, Jalan Brp 1/3, Bukit Rahman Putra, Sungai Buloh, Selangor, Malaysia"
Selangor,Qhc Medical Centre,Private,Uep Subang Jaya,"Qhc Medical Centre, No. 2, Jalan Usj 9/5R, Uep Subang Jaya, Selangor, Malaysia"
Selangor,Salam Shah Alam Specialist Hospital,Private,Shah Alam,"Salam Shah Alam Specialist Hospital, 2-14, Jalan Nelayan 19/B, Seksyen 19, Shah Alam, Selangor, Malaysia"
Selangor,Sentosa Specialist Hospital,Private,Klang,"Sentosa Specialist Hospital, No. 25, 27 & 29, Lorong Temenggung 15A Dan No. 2, 4, & 6, Lorong Temenggung 15D, Off Jalan Sungai Jati, Klang, Selangor, Malaysia"
Selangor,Subang Jaya Medical Centre,Private,Subang Jaya,"Subang Jaya Medical Centre, No 1, Jalan Ss 12/1A, Subang Jaya, Selangor, Malaysia"
Selangor,Sungai Long Specialist Hospital,Private,Kajang,"Sungai Long Specialist Hospital, Lot Pt 21147, Persiaran Sungai Long 1, Bandar Sungai Long, Kajang, Selangor, Malaysia"
Selangor,Sunway Medical Centre,Private,Subang Jaya,"Sunway Medical Centre, 5, Jalan Lagoon Selatan, Bandar Sunway, Subang Jaya, Selangor, Malaysia"
Selangor,Sunway Medical Centre Damansara (Pusat Perubatan Sunway Medical),Private,Petaling Jaya,"Sunway Medical Centre Damansara (Pusat Perubatan Sunway Medical), No 2 Jalan Pju 5/1A, Kota Damansara, Pju 5 , Petaling Jaya, Selangor, Malaysia"
Selangor,Thomson Hospital Kota Damansara,Private,Petaling Jaya,"Thomson Hospital Kota Damansara, No 11, Jalan Teknologi, Taman Sains Selangor 1, Pju 5 Kota Damansara, Petaling Jaya, Selangor, Malaysia"
Selangor,Uitm Private Specialist Centre,Private,Sungai Buloh,"Uitm Private Specialist Centre, Level 2, 4 & 5, Bangunan Pengajian Klinikal, Fakulti Perubatan   Uitm, Kampus Sg. Buloh, Jalan Hospital, Sungai Buloh, Selangor, Malaysia"
Terengganu,Hospital Besut,Public,Besut,"Hospital Besut, Jalan Pasir Akar, Jerteh, Besut, Terengganu, Malaysia"
Terengganu,Hospital Dungun,Public,Dungun,"Hospital Dungun, Hospital Dungun, Dungun, Terengganu, Malaysia"
Terengganu,Hospital Hulu Terengganu,Public,Kuala Berang,"Hospital Hulu Terengganu, Batu 23, Jalan Kuala Berang, Kuala Berang, Terengganu, Malaysia"
Terengganu,Hospital Kemaman,Public,Kemaman,"Hospital Kemaman, Jalan Da' Omar, Cukai, Kemaman, Terengganu, Malaysia"
Terengganu,Hospital Setiu,Public,Setiu,"Hospital Setiu, Bandar Permaisuri, Setiu, Terengganu, Malaysia"
Terengganu,Hospital Sultanah Nur Zahirah,Public,Kuala Terengganu,"Hospital Sultanah Nur Zahirah, Jalan Sultan Mahmud, Kuala Terengganu, Kuala Terengganu, Terengganu, Malaysia"
Terengganu,Kmi Kuala Terengganu Medical Centre,Private,Kuala Terengganu,"Kmi Kuala Terengganu Medical Centre, Lot 3963, Kampung Batu Buruk Jalan Sultan Mahmud, Mukim Batu Buruk, Kuala Terengganu, Terengganu, Malaysia"
Terengganu,"Salam Specialist Hospital, Kuala Terengganu",Private,Kuala Terengganu,"Salam Specialist Hospital, Kuala Terengganu, Lot 4075, Jalan Engku Sar, Kuala Terengganu, Terengganu, Malaysia"
W.P. Kuala Lumpur,Hospital Kuala Lumpur,Public,W.P. Kuala Lumpur,"Hospital Kuala Lumpur, Jalan Pahang, W.P. Kuala Lumpur, W.P. Kuala Lumpur, Malaysia"
W.P. Kuala Lumpur,Hospital Rehabilitasi Cheras,Public,W.P. Kuala Lumpur,"Hospital Rehabilitasi Cheras, Jalan Yaacob Latif, Bandar Tun Razak Cheras 56000 Kuala Lumpur
W.P. Kuala Lumpur, W.P. Kuala Lumpur, W.P. Kuala Lumpur, Malaysia"
W.P. Kuala Lumpur,Hospital Tunku Azizah (Wanita Dan Kanak-Kanak),Public,W.P. Kuala Lumpur,"Hospital Tunku Azizah (Wanita Dan Kanak-Kanak), Jalan Raja Muda Abdul Aziz, W.P. Kuala Lumpur, W.P. Kuala Lumpur, Malaysia"
W.P. Kuala Lumpur,Institut Perubatan Respiratori,Public,W.P. Kuala Lumpur,"Institut Perubatan Respiratori, Jalan Pahang, W.P. Kuala Lumpur, W.P. Kuala Lumpur, Malaysia"
W.P. Labuan,Hospital Labuan,Public,W.P. Labuan,"Hospital Labuan, Peti Surat 81006, W.P. Labuan, W.P. Labuan, Malaysia"
W.P. Putrajaya,Hospital Putrajaya,Public,W.P. Putrajaya,"Hospital Putrajaya, Pusat Pentadbiran Kerajaan Persekutuan, presint 7, W.P. Putrajaya, W.P. Putrajaya, Malaysia"
W.P. Putrajaya,Institut Kanser Negara,Public,W.P. Putrajaya,"Institut Kanser Negara, No 4, Jalan P7, Presint 7
62250 Putrajaya
W.P. Putrajaya, W.P. Putrajaya, W.P. Putrajaya, Malaysia"
Wp Kuala Lumpur,Al-Islam Specialist Hospital,Private,Kuala Lumpur,"Al-Islam Specialist Hospital, No. 85, Jalan Raja Abdullah, Kampung Baru, W.P. Kuala Lumpur, W.P. Kuala Lumpur, Malaysia"
Wp Kuala Lumpur,Alty Orthopaedic Hospital,Private,Kuala Lumpur,"Alty Orthopaedic Hospital, Level Ground, Level 1 Hingga 4, 5-1, 6-1, 7-1 & 8-1, Menara Alty, No 187, Jalan Ampang, W.P. Kuala Lumpur, W.P. Kuala Lumpur, Malaysia"
Wp Kuala Lumpur,Beverly Wilshire Medical Centre,Private,Kuala Lumpur,"Beverly Wilshire Medical Centre, Level 8 & 9, Kenanga Tower, No. 237, Jalan Tun Razak, W.P. Kuala Lumpur, W.P. Kuala Lumpur, Malaysia"
Wp Kuala Lumpur,Cardiac Vascular Sentral Kuala Lumpur,Private,Kuala Lumpur,"Cardiac Vascular Sentral Kuala Lumpur, Jalan Stesyen Sentral 5, Kuala Lumpur Sentral, W.P. Kuala Lumpur, W.P. Kuala Lumpur, Malaysia"
Wp Kuala Lumpur,Cengild G.I Medical Centre,Private,Kuala Lumpur,"Cengild G.I Medical Centre, Unit 2-3 & 2-4, Nexus @ Bangsar South, No. 7, Jalan Kerinchi, W.P. Kuala Lumpur, W.P. Kuala Lumpur, Malaysia"
Wp Kuala Lumpur,Chaudhury Medical Centre,Private,Kuala Lumpur,"Chaudhury Medical Centre, No 15, Jalan 5/65C, Off Jalan Pahang Barat, Pekeliling Business Centre, W.P. Kuala Lumpur, W.P. Kuala Lumpur, Malaysia"
Wp Kuala Lumpur,Cheras Specialist Maternity Centre,Private,Cheras,"Cheras Specialist Maternity Centre, 55, Jalan 2/90 Taman Pertama, Cheras, Wp Kuala Lumpur, Malaysia"
Wp Kuala Lumpur,Columbia Hospital,Private,Kuala Lumpur,"Columbia Hospital, No. 1, Jalan Danau Saujana, Off Jalan Genting Klang, W.P. Kuala Lumpur, W.P. Kuala Lumpur, Malaysia"
Wp Kuala Lumpur,Damai Service Hospital (Hq) Sdn Bhd,Private,Kuala Lumpur,"Damai Service Hospital (Hq) Sdn Bhd, 109-119 (1St Mile) Jalan Sultan Azlan Shah, W.P. Kuala Lumpur, W.P. Kuala Lumpur, Malaysia"
Wp Kuala Lumpur,Gleneagles Hospital Kuala Lumpur,Private,Kuala Lumpur,"Gleneagles Hospital Kuala Lumpur, 282, 286 & 288, Block A, B & Medical Office Block (Ground Floor), Jalan Ampang, W.P. Kuala Lumpur, W.P. Kuala Lumpur, Malaysia"
Wp Kuala Lumpur,Global Doctors Hospital,Private,Kuala Lumpur,"Global Doctors Hospital, Level 2A, 3A & 4A, Kiara Designer Suite, No. 18, Jalan Kiara 3, Mont Kiara, W.P. Kuala Lumpur, W.P. Kuala Lumpur, Malaysia"
Wp Kuala Lumpur,Hospital Columbia Asia,Private,Kuala Lumpur,"Hospital Columbia Asia, No. 9, Jalan Jalil Perkasa 7, Bukit Jalil, W.P. Kuala Lumpur, W.P. Kuala Lumpur, Malaysia"
Wp Kuala Lumpur,Hospital Kiara Medical Centre,Private,Kuala Lumpur,"Hospital Kiara Medical Centre, No. 244, Jalan Ipoh, W.P. Kuala Lumpur, W.P. Kuala Lumpur, Malaysia"
Wp Kuala Lumpur,Hospital Pakar Damansara 2,Private,Kuala Lumpur,"Hospital Pakar Damansara 2, No .1 Jalan Bukit Lanjan 3, Bukit Lanjan, W.P. Kuala Lumpur, W.P. Kuala Lumpur, Malaysia"
Wp Kuala Lumpur,Hospital Pakar Kpj Tawakkal Kl (Kpj Tawakkal Kl Specialist Hospital),Private,Kuala Lumpur,"Hospital Pakar Kpj Tawakkal Kl (Kpj Tawakkal Kl Specialist Hospital), No 1 Jalan Pahang Barat , W.P. Kuala Lumpur, W.P. Kuala Lumpur, Malaysia"
Wp Kuala Lumpur,Hospital Pakar Pusrawi Kuala Lumpur,Private,Kuala Lumpur,"Hospital Pakar Pusrawi Kuala Lumpur, Lot 149, Jalan Tun Razak, W.P. Kuala Lumpur, W.P. Kuala Lumpur, Malaysia"
Wp Kuala Lumpur,Hospital Pakar Wanita Sarmukh,Private,Kuala Lumpur,"Hospital Pakar Wanita Sarmukh, 167, Jalan Genting Kelang, Setapak, W.P. Kuala Lumpur, W.P. Kuala Lumpur, Malaysia"
Wp Kuala Lumpur,Iheal Medical Centre Kuala Lumpur,Private,Kuala Lumpur,"Iheal Medical Centre Kuala Lumpur, Level 7 & 8, Annexe Block, Menara Igb, Mid Valley City, Lingkaran Syed Putra, W.P. Kuala Lumpur, W.P. Kuala Lumpur, Malaysia"
Wp Kuala Lumpur,Institut Jantung Negara,Private,Kuala Lumpur,"Institut Jantung Negara, 145, Jalan Tun Razak, W.P. Kuala Lumpur, W.P. Kuala Lumpur, Malaysia"
Wp Kuala Lumpur,Klinik Pakar Wanita Kepong Dan Pusat Bersalin,Private,Kuala Lumpur,"Klinik Pakar Wanita Kepong Dan Pusat Bersalin, 17, Jalan Metro Perdana Timur Satu, Taman Usahawan Kepong, W.P. Kuala Lumpur, W.P. Kuala Lumpur, Malaysia"
Wp Kuala Lumpur,Klsmc Hospital,Private,Kuala Lumpur,"Klsmc Hospital, 47, Jalan Dungun, Damansara Heights, W.P. Kuala Lumpur, W.P. Kuala Lumpur, Malaysia"
Wp Kuala Lumpur,Kmi Taman Desa Medical Centre,Private,Kuala Lumpur,"Kmi Taman Desa Medical Centre, 45, Jalan Desa, Taman Desa, Off Jalan Klang Lama, W.P. Kuala Lumpur, W.P. Kuala Lumpur, Malaysia"
Wp Kuala Lumpur,Kpj Sentosa Kl Specialist Hospital,Private,Kuala Lumpur,"Kpj Sentosa Kl Specialist Hospital, 36, Jalan Chemur, Kompleks Damai, W.P. Kuala Lumpur, W.P. Kuala Lumpur, Malaysia"
Wp Kuala Lumpur,Pantai Hospital Ampang,Private,Kuala Lumpur,"Pantai Hospital Ampang, Jalan Perubatan 1, Pandan Indah, W.P. Kuala Lumpur, W.P. Kuala Lumpur, Malaysia"
Wp Kuala Lumpur,Pantai Hospital Cheras,Private,Kuala Lumpur,"Pantai Hospital Cheras, Level 33A, Mercu Aspire, No.3 Jalan Bangsar, Kl Eco City , W.P. Kuala Lumpur, W.P. Kuala Lumpur, Malaysia"
Wp Kuala Lumpur,Pantai Hospital Kuala Lumpur,Private,Kuala Lumpur,"Pantai Hospital Kuala Lumpur, No. 8, Jalan Bukit Pantai, W.P. Kuala Lumpur, W.P. Kuala Lumpur, Malaysia"
Wp Kuala Lumpur,Parkcity Medical Centre,Private,Kuala Lumpur,"Parkcity Medical Centre





, No. 2, Jalan Inti Sari Perdana, Desa Parkcity, W.P. Kuala Lumpur, W.P. Kuala Lumpur, Malaysia"
Wp Kuala Lumpur,Prince Court Medical Centre,Private,Kuala Lumpur,"Prince Court Medical Centre , 39, Jalan Kia Peng, W.P. Kuala Lumpur, W.P. Kuala Lumpur, Malaysia"
Wp Kuala Lumpur,Pudu Specialists' Centre Sdn Bhd,Private,Kuala Lumpur,"Pudu Specialists' Centre Sdn Bhd, 20-26, Jalan Baba, Off Changkat Thambi Dollah,Pudu, W.P. Kuala Lumpur, W.P. Kuala Lumpur, Malaysia"
Wp Kuala Lumpur,Pusat Diagnostik Jantung Maa Medicare Cardiac Diagnostic Centre,Private,Kuala Lumpur,"Pusat Diagnostik Jantung Maa Medicare Cardiac Diagnostic Centre, No. 183, 4Th And 5Th Floor, Wisma Maa-Medicare, Jalan Ipoh, W.P. Kuala Lumpur, W.P. Kuala Lumpur, Malaysia"
Wp Kuala Lumpur,Pusat Pakar Ortopedik Quill Orthopaedic Specialist Centre,Private,Kuala Lumpur,"Pusat Pakar Ortopedik Quill Orthopaedic Specialist Centre, No. 95, 97, 99, 95A, 97A, 99A, 101A, 95B, 97B, 99B & 101B, Jalan Aminuddin Baki, Taman Tun Dr. Ismail, W.P. Kuala Lumpur, W.P. Kuala Lumpur, Malaysia"
Wp Kuala Lumpur,Pusat Pakar Ukm,Private,Kuala Lumpur,"Pusat Pakar Ukm, Tingkat 1, 2 Dan 7, Blok Klinikal & Tingkat Bawah Dan Tingkat 1 Blok Gamma Knife, Pusat Perubatan Ukm, Jalan Yaacob Latif, Bandar Tun Razak, W.P. Kuala Lumpur, W.P. Kuala Lumpur, Malaysia"
Wp Kuala Lumpur,Pusat Perubatan Naluri,Private,Kuala Lumpur,"Pusat Perubatan Naluri, No. 94,92-2, 90-2, 88-2 & 86-2 Jalan Wangsa Delima 6, Pusat Bandar Wangsa Maju

, W.P. Kuala Lumpur, W.P. Kuala Lumpur, Malaysia"
Wp Kuala Lumpur,Pusat Perubatan Roopi Medical Centre Sdn Bhd,Private,Kuala Lumpur,"Pusat Perubatan Roopi Medical Centre Sdn Bhd, 86, Jalan Dato Haji Eusoff, Damai Complex, W.P. Kuala Lumpur, W.P. Kuala Lumpur, Malaysia"
Wp Kuala Lumpur,Sunway Medical Centre Velocity,Private,Kuala Lumpur,"Sunway Medical Centre Velocity, Pusat Perubatan Sunway Velocity, Lingkaran Sv, Sunway Velocity, W.P. Kuala Lumpur, W.P. Kuala Lumpur, Malaysia"
Wp Kuala Lumpur,Tung Shin Hospital,Private,Kuala Lumpur,"Tung Shin Hospital, Ukm Specialist Centre Sdn. Bhd., W.P. Kuala Lumpur, W.P. Kuala Lumpur, Malaysia"
Wp Putrajaya,Hospital Azalea Putrajaya,Private,Putrajaya,"Hospital Azalea Putrajaya, B1-Lg-2, B1-Lg-3, B1-G-2, B-1-G-3, B1-1-2 & B1-1-3, Ayer@8, Jalan P8G, Presint 8, W.P Putrajaya, W.P Putrajaya, Malaysia"
Wp Putrajaya,Stella Kasih Medical Centre,Private,Putrajaya,"Stella Kasih Medical Centre, Lot 192, Blok B, Jalan P8C/1, Pusat Perniagaan Presint 8, W.P Putrajaya, W.P Putrajaya, Malaysia"
