No,Hospital Name,Address,City,State,Full Location,Type,Address_Location
2,Hospital Ampang,Jalan Mewah Utara,Ampang,Selangor,"Ampang, Selangor, Malaysia",Public,"Hospital Ampang, Jalan Mewah Utara, Ampang, Selangor, Malaysia"
123,Ampang Puteri Specialist Hospital,"No.1, Jalan Mamanda 9, Taman Dato' Ahmad Razali",Ampang,Selangor,"Ampang, Selangor, Malaysia",Private,"Ampang Puteri Specialist Hospital, No.1, Jalan Mamanda 9, Taman Dato' Ahmad Razali, Ampang, Selangor, Malaysia"
135,Pusat Perubatan Joe (Klinik Wanita Dan Kanak-Kanak),"3G & 5G, Jalan Wawasan 4/1, Bandar Baru Ampang",Ampang,Selangor,"Ampang, Selangor, Malaysia",Private,"Pusat Perubatan Joe (Klinik Wanita Dan Kanak-Kanak), 3G & 5G, Jalan Wawasan 4/1, Bandar Baru Ampang, Ampang, Selangor, Malaysia"
110,Hospital Pakar An-Nur Specialist Hospital,"Jalan Gerbang Wawasan 1, Seksyen 15",Bandar Baru Bangi,Selangor,"Bandar Baru Bangi, Selangor, Malaysia",Private,"Hospital Pakar An-Nur Specialist Hospital, Jalan Gerbang Wawasan 1, Seksyen 15, Bandar Baru Bangi, Selangor, Malaysia"
108,Hospital Islam Az-Zahrah,"No. 24, 26, 28, 30, 32 & 34, Medan Pusat Bandar 1, Seksyen 9",Bandar Baru Bangi,Selangor,"Bandar Baru Bangi, Selangor, Malaysia",Private,"Hospital Islam Az-Zahrah, No. 24, 26, 28, 30, 32 & 34, Medan Pusat Bandar 1, Seksyen 9, Bandar Baru Bangi, Selangor, Malaysia"
114,Hospital Wanita Metro,"No. 22-26, Jalan Emas 1, Bandar Sungai Emas, Sungai Manggis",Banting,Selangor,"Banting, Selangor, Malaysia",Private,"Hospital Wanita Metro, No. 22-26, Jalan Emas 1, Bandar Sungai Emas, Sungai Manggis, Banting, Selangor, Malaysia"
6,Hospital Banting,Jalan Sultan Alam Shah,Banting,Selangor,"Banting, Selangor, Malaysia",Public,"Hospital Banting, Jalan Sultan Alam Shah, Banting, Selangor, Malaysia"
93,Hospital Selayang,Lebuhraya Selayang-Kepong,Batu Caves,Selangor,"Batu Caves, Selangor, Malaysia",Public,"Hospital Selayang, Lebuhraya Selayang-Kepong, Batu Caves, Selangor, Malaysia"
103,Columbia Asia Hospital,"Lot 33107, Jalan Suakasih",Cheras,Selangor,"Cheras, Selangor, Malaysia",Private,"Columbia Asia Hospital, Lot 33107, Jalan Suakasih, Cheras, Selangor, Malaysia"
66,Hospital Orang Asli,"KM 24, Jalan Pahang Lama, 53100 Gombak, Selangor",Gombak,Selangor,"Gombak, Selangor, Malaysia",Public,"Hospital Orang Asli, KM 24, Jalan Pahang Lama, 53100 Gombak, Selangor, Gombak, Selangor, Malaysia"
32,Hospital Kajang,Jalan Semenyih,Kajang,Selangor,"Kajang, Selangor, Malaysia",Public,"Hospital Kajang, Jalan Semenyih, Kajang, Selangor, Malaysia"
141,Sungai Long Specialist Hospital,"Lot Pt 21147, Persiaran Sungai Long 1, Bandar Sungai Long",Kajang,Selangor,"Kajang, Selangor, Malaysia",Private,"Sungai Long Specialist Hospital, Lot Pt 21147, Persiaran Sungai Long 1, Bandar Sungai Long, Kajang, Selangor, Malaysia"
96,Hospital Serdang,Jalan Puchong,Kajang,Selangor,"Kajang, Selangor, Malaysia",Public,"Hospital Serdang, Jalan Puchong, Kajang, Selangor, Malaysia"
99,Britannia Women Specialist Centre,"No. 65-67, Aras Bawah, Aras 1 Dan Aras 2, Jalan Tks 1, Taman Kajang Sentral",Kajang,Selangor,"Kajang, Selangor, Malaysia",Private,"Britannia Women Specialist Centre, No. 65-67, Aras Bawah, Aras 1 Dan Aras 2, Jalan Tks 1, Taman Kajang Sentral, Kajang, Selangor, Malaysia"
125,Kpj Kajang Specialist Hospital,"Batu 14, Jalan Cheras",Kajang,Selangor,"Kajang, Selangor, Malaysia",Private,"Kpj Kajang Specialist Hospital, Batu 14, Jalan Cheras, Kajang, Selangor, Malaysia"
117,Kajang Plaza Medical Centre,"No. 35, 36, 33B, 34B, 35B, 36B Dan 36C, Jalan Dato' Seri Alagendra 2, Kajang Plaza",Kajang,Selangor,"Kajang, Selangor, Malaysia",Private,"Kajang Plaza Medical Centre, No. 35, 36, 33B, 34B, 35B, 36B Dan 36C, Jalan Dato' Seri Alagendra 2, Kajang Plaza, Kajang, Selangor, Malaysia"
116,Jmc Specialist Medical Centre,"No. 80, Jalan Telok Gadong, Di Persiaran Raja Muda Musa",Klang,Selangor,"Klang, Selangor, Malaysia",Private,"Jmc Specialist Medical Centre, No. 80, Jalan Telok Gadong, Di Persiaran Raja Muda Musa, Klang, Selangor, Malaysia"
131,Hospital Tengku Ampuan Rahimah,"Jalan Langat,41200 Klang",Klang,Selangor,"Klang, Selangor, Malaysia",Public,"Hospital Tengku Ampuan Rahimah, Jalan Langat,41200 Klang, Klang, Selangor, Malaysia"
119,Klinik Pakar Wanita Dan Keluarga Kapar Indah,"2, Jalan Harapan 3, Sungai Kapar Indah",Klang,Selangor,"Klang, Selangor, Malaysia",Private,"Klinik Pakar Wanita Dan Keluarga Kapar Indah, 2, Jalan Harapan 3, Sungai Kapar Indah, Klang, Selangor, Malaysia"
120,Klinik Pakar Wanita Sheela Sdn. Bhd.,"No 36, 38 & 40, Jalan Batai Laut 3, Kawasan 16, Taman Intan",Klang,Selangor,"Klang, Selangor, Malaysia",Private,"Klinik Pakar Wanita Sheela Sdn. Bhd., No 36, 38 & 40, Jalan Batai Laut 3, Kawasan 16, Taman Intan, Klang, Selangor, Malaysia"
126,Kpj Klang Specialist Hospital,"No. 102, Persiaran Rajawali/Ku1, Bandar Baru Klang",Klang,Selangor,"Klang, Selangor, Malaysia",Private,"Kpj Klang Specialist Hospital, No. 102, Persiaran Rajawali/Ku1, Bandar Baru Klang, Klang, Selangor, Malaysia"
115,Hospital Wanita Metro,"No. 32-38, Jalan Pasar",Klang,Selangor,"Klang, Selangor, Malaysia",Private,"Hospital Wanita Metro, No. 32-38, Jalan Pasar, Klang, Selangor, Malaysia"
122,Ko Specialist Medical Centre,"6 – 12, Tingkat Bawah, Jalan Temoh, Off Jalan Goh Hock Huat",Klang,Selangor,"Klang, Selangor, Malaysia",Private,"Ko Specialist Medical Centre, 6 – 12, Tingkat Bawah, Jalan Temoh, Off Jalan Goh Hock Huat, Klang, Selangor, Malaysia"
100,Bukit Tinggi Medical Centre,"Lot 83211, Persiaran Batu Nilam 9/Ks6, Bandar Bukit Tinggi",Klang,Selangor,"Klang, Selangor, Malaysia",Private,"Bukit Tinggi Medical Centre, Lot 83211, Persiaran Batu Nilam 9/Ks6, Bandar Bukit Tinggi, Klang, Selangor, Malaysia"
107,Hospital Bersalin Razif,"No. 33, 35, 37 & 39, Jalan Sri Sarawak, 20A/Ks2, Taman Sri Andalas",Klang,Selangor,"Klang, Selangor, Malaysia",Private,"Hospital Bersalin Razif, No. 33, 35, 37 & 39, Jalan Sri Sarawak, 20A/Ks2, Taman Sri Andalas, Klang, Selangor, Malaysia"
136,Pusat Perubatan Pakar Sri Kota,Jalan Mohet,Klang,Selangor,"Klang, Selangor, Malaysia",Private,"Pusat Perubatan Pakar Sri Kota, Jalan Mohet, Klang, Selangor, Malaysia"
102,Columbia Asia Hospital,"Pt 71153, Jalan Mahkota 1/Ku2, Mutiara Bukit Raja 2, Km 2, Off Jalan Meru",Klang,Selangor,"Klang, Selangor, Malaysia",Private,"Columbia Asia Hospital, Pt 71153, Jalan Mahkota 1/Ku2, Mutiara Bukit Raja 2, Km 2, Off Jalan Meru, Klang, Selangor, Malaysia"
139,Sentosa Specialist Hospital,"No. 25, 27 & 29, Lorong Temenggung 15A Dan No. 2, 4, & 6, Lorong Temenggung 15D, Off Jalan Sungai Jati",Klang,Selangor,"Klang, Selangor, Malaysia",Private,"Sentosa Specialist Hospital, No. 25, 27 & 29, Lorong Temenggung 15A Dan No. 2, 4, & 6, Lorong Temenggung 15D, Off Jalan Sungai Jati, Klang, Selangor, Malaysia"
132,Pantai Hospital Klang,"Lot 5921, Persiaran Raja Muda Musa",Klang,Selangor,"Klang, Selangor, Malaysia",Private,"Pantai Hospital Klang, Lot 5921, Persiaran Raja Muda Musa, Klang, Selangor, Malaysia"
44,Hospital Kuala Kubu Bharu,Jalan Hospital,Kuala Kubu Bharu,Selangor,"Kuala Kubu Bharu, Selangor, Malaysia",Public,"Hospital Kuala Kubu Bharu, Jalan Hospital, Kuala Kubu Bharu, Selangor, Malaysia"
149,Ohana Specialist Hospital,"No. 9, 11, 13-1 & 13-2 Jalan Seri Rejang, Rampai Business Park South",Kuala Lumpur,Selangor,"Kuala Lumpur, Selangor, Malaysia",Private,"Ohana Specialist Hospital, No. 9, 11, 13-1 & 13-2 Jalan Seri Rejang, Rampai Business Park South, Kuala Lumpur, Selangor, Malaysia"
130,Hospital Wanita Metro,"No. 33, 35, 37 & 39, Jalan Rhu 1, Taman Rhu, Off Jalan Kelang",Kuala Selangor,Selangor,"Kuala Selangor, Selangor, Malaysia",Private,"Hospital Wanita Metro, No. 33, 35, 37 & 39, Jalan Rhu 1, Taman Rhu, Off Jalan Kelang, Kuala Selangor, Selangor, Malaysia"
101,Columbia Asia Hospital,"Lot 69, Jalan 13/6, Seksyen 13",Petaling Jaya,Selangor,"Petaling Jaya, Selangor, Malaysia",Private,"Columbia Asia Hospital, Lot 69, Jalan 13/6, Seksyen 13, Petaling Jaya, Selangor, Malaysia"
134,Pusat Perubatan Damansara Damai,"Tingkat Bawah, Blok B, 002- 005, Jalan Pju 10/2A, Pju10, Damansara Damai",Petaling Jaya,Selangor,"Petaling Jaya, Selangor, Malaysia",Private,"Pusat Perubatan Damansara Damai, Tingkat Bawah, Blok B, 002- 005, Jalan Pju 10/2A, Pju10, Damansara Damai, Petaling Jaya, Selangor, Malaysia"
121,Kmi Kelana Jaya Medical Centre,"No. 1, Fas Business Avenue, Jalan Perbandaran Ss7, Kelana Jaya",Petaling Jaya,Selangor,"Petaling Jaya, Selangor, Malaysia",Private,"Kmi Kelana Jaya Medical Centre, No. 1, Fas Business Avenue, Jalan Perbandaran Ss7, Kelana Jaya, Petaling Jaya, Selangor, Malaysia"
106,Hospital Bersalin & Poliklinik Pusrawi Pusrawi Corporation Sdn. Bhd. Kota Damansara,"No. 22, Tingkat Bawah & Tingkat 1, Jalan Pekaka 8/3, Seksyen 8",Petaling Jaya,Selangor,"Petaling Jaya, Selangor, Malaysia",Private,"Hospital Bersalin & Poliklinik Pusrawi Pusrawi Corporation Sdn. Bhd. Kota Damansara, No. 22, Tingkat Bawah & Tingkat 1, Jalan Pekaka 8/3, Seksyen 8, Petaling Jaya, Selangor, Malaysia"
109,Hospital Mata Nasional Tun Hussein Onn (The Tun Hussein Onn National Eye Hospital),"Lot 2, Lorong Utara B",Petaling Jaya,Selangor,"Petaling Jaya, Selangor, Malaysia",Private,"Hospital Mata Nasional Tun Hussein Onn (The Tun Hussein Onn National Eye Hospital), Lot 2, Lorong Utara B, Petaling Jaya, Selangor, Malaysia"
98,Beacon Hospital,"1, Jalan 215, Seksyen 51, Off Jalan Templer",Petaling Jaya,Selangor,"Petaling Jaya, Selangor, Malaysia",Private,"Beacon Hospital, 1, Jalan 215, Seksyen 51, Off Jalan Templer, Petaling Jaya, Selangor, Malaysia"
148,Hospital Picaso,"No 110, Jalan Professor Khoo Kay Kim, Seksyen 19",Petaling Jaya,Selangor,"Petaling Jaya, Selangor, Malaysia",Private,"Hospital Picaso, No 110, Jalan Professor Khoo Kay Kim, Seksyen 19, Petaling Jaya, Selangor, Malaysia"
143,Thomson Hospital Kota Damansara,"No 11, Jalan Teknologi, Taman Sains Selangor 1, Pju 5 Kota Damansara",Petaling Jaya,Selangor,"Petaling Jaya, Selangor, Malaysia",Private,"Thomson Hospital Kota Damansara, No 11, Jalan Teknologi, Taman Sains Selangor 1, Pju 5 Kota Damansara, Petaling Jaya, Selangor, Malaysia"
95,Assunta Hospital,Jalan Templer,Petaling Jaya,Selangor,"Petaling Jaya, Selangor, Malaysia",Private,"Assunta Hospital, Jalan Templer, Petaling Jaya, Selangor, Malaysia"
146,Hospital Regen Rehab,"No.  9, Jalan  13/4",Petaling Jaya,Selangor,"Petaling Jaya, Selangor, Malaysia",Private,"Hospital Regen Rehab, No.  9, Jalan  13/4, Petaling Jaya, Selangor, Malaysia"
124,Kpj Damansara Specialist Hospital,"No. 119, Jalan Ss 20/10, Damansara Utama",Petaling Jaya,Selangor,"Petaling Jaya, Selangor, Malaysia",Private,"Kpj Damansara Specialist Hospital, No. 119, Jalan Ss 20/10, Damansara Utama, Petaling Jaya, Selangor, Malaysia"
209,Sunway Medical Centre Damansara (Pusat Perubatan Sunway Medical),"No 2 Jalan Pju 5/1A, Kota Damansara, Pju 5",Petaling Jaya,Selangor,"Petaling Jaya, Selangor, Malaysia",Private,"Sunway Medical Centre Damansara (Pusat Perubatan Sunway Medical), No 2 Jalan Pju 5/1A, Kota Damansara, Pju 5 , Petaling Jaya, Selangor, Malaysia"
105,Colombia Hospital,"No. 1, Lebuh Puteri, Bandar Puteri Puchong",Puchong,Selangor,"Puchong, Selangor, Malaysia",Private,"Colombia Hospital, No. 1, Lebuh Puteri, Bandar Puteri Puchong, Puchong, Selangor, Malaysia"
129,Kpmc Puchong Specialist Centre,"No. 1 & 3, Jalan Puteri 2/1, Bandar Puteri Puchong",Puchong,Selangor,"Puchong, Selangor, Malaysia",Private,"Kpmc Puchong Specialist Centre, No. 1 & 3, Jalan Puteri 2/1, Bandar Puteri Puchong, Puchong, Selangor, Malaysia"
147,Daehan Rehabilitation Hospital Putrajaya,"Block B, Two Ioi Square, Ioi Resort",Putrajaya,Selangor,"Putrajaya, Selangor, Malaysia",Private,"Daehan Rehabilitation Hospital Putrajaya, Block B, Two Ioi Square, Ioi Resort, Putrajaya, Selangor, Malaysia"
127,Kpj Rawang Specialist Hospital (Hospital Pakar Kpj Rawang),"Jalan Rawang, Bandar Baru Rawang",Rawang,Selangor,"Rawang, Selangor, Malaysia",Private,"Kpj Rawang Specialist Hospital (Hospital Pakar Kpj Rawang), Jalan Rawang, Bandar Baru Rawang, Rawang, Selangor, Malaysia"
130,Hospital Tengku Ampuan Jemaah,45200 Sabak Bernam,Sabak Bernam,Selangor,"Sabak Bernam, Selangor, Malaysia",Public,"Hospital Tengku Ampuan Jemaah, 45200 Sabak Bernam, Sabak Bernam, Selangor, Malaysia"
211,Mahsa Specialist Hospital (Hospital Pakar Mahsa),"Jalan Sp 1/3, Bandar Saujana Putra, Jenjarom",Selangor,Selangor,"Selangor, Selangor, Malaysia",Private,"Mahsa Specialist Hospital (Hospital Pakar Mahsa), Jalan Sp 1/3, Bandar Saujana Putra, Jenjarom, Selangor, Selangor, Malaysia"
213,Kpj Kuala Selangor Specialist Hospital,"No.1 Jalan Peninsula Tanjung, Peninsula Utama",Selangor,Selangor,"Selangor, Selangor, Malaysia",Private,"Kpj Kuala Selangor Specialist Hospital, No.1 Jalan Peninsula Tanjung, Peninsula Utama, Selangor, Selangor, Malaysia"
113,Hospital Wanita Dan Kanak-Kanak Andorra Women & Children Hospital,"No 19, Jalan Utama Suria Tropika 1, Taman Suria Tropika",Seri Kembangan,Selangor,"Seri Kembangan, Selangor, Malaysia",Private,"Hospital Wanita Dan Kanak-Kanak Andorra Women & Children Hospital, No 19, Jalan Utama Suria Tropika 1, Taman Suria Tropika, Seri Kembangan, Selangor, Malaysia"
111,Hospital Rawatan Lanjutan Columbia Asia (Columbia Asia Extended Care Hospital),"Lot No. 2, Jalan Baung 17/22, Seksyen 17",Shah Alam,Selangor,"Shah Alam, Selangor, Malaysia",Private,"Hospital Rawatan Lanjutan Columbia Asia (Columbia Asia Extended Care Hospital), Lot No. 2, Jalan Baung 17/22, Seksyen 17, Shah Alam, Selangor, Malaysia"
100,Hospital Shah Alam,"Hospital Shah Alam
Persiaran Kayangan, Seksyen 7
40000 Shah Alam
Selangor",Shah Alam,Selangor,"Shah Alam, Selangor, Malaysia",Public,"Hospital Shah Alam, Hospital Shah Alam
Persiaran Kayangan, Seksyen 7
40000 Shah Alam
Selangor, Shah Alam, Selangor, Malaysia"
96,Avisena Specialist Hospital,"No. 4, Jalan Ikhtisas, Seksyen 14",Shah Alam,Selangor,"Shah Alam, Selangor, Malaysia",Private,"Avisena Specialist Hospital, No. 4, Jalan Ikhtisas, Seksyen 14, Shah Alam, Selangor, Malaysia"
97,Avisena Women’S & Children’S Specialist Hospital,"No. 3, Jalan Perdagangan 14/4, Seksyen 14",Shah Alam,Selangor,"Shah Alam, Selangor, Malaysia",Private,"Avisena Women’S & Children’S Specialist Hospital, No. 3, Jalan Perdagangan 14/4, Seksyen 14, Shah Alam, Selangor, Malaysia"
112,Hospital Umra,"Tingkat 1 & 2, No. 14, 16, & 18, Jalan Bola Tampar 13/14, Seksyen 13",Shah Alam,Selangor,"Shah Alam, Selangor, Malaysia",Private,"Hospital Umra, Tingkat 1 & 2, No. 14, 16, & 18, Jalan Bola Tampar 13/14, Seksyen 13, Shah Alam, Selangor, Malaysia"
138,Salam Shah Alam Specialist Hospital,"2-14, Jalan Nelayan 19/B, Seksyen 19",Shah Alam,Selangor,"Shah Alam, Selangor, Malaysia",Private,"Salam Shah Alam Specialist Hospital, 2-14, Jalan Nelayan 19/B, Seksyen 19, Shah Alam, Selangor, Malaysia"
94,Ara Damansara Medical Centre,"2, Jalan Lapangan Terbang, Seksyen U2",Shah Alam,Selangor,"Shah Alam, Selangor, Malaysia",Private,"Ara Damansara Medical Centre, 2, Jalan Lapangan Terbang, Seksyen U2, Shah Alam, Selangor, Malaysia"
131,Msu Medical Centre,No. 4 (Pt No. 1108) Persiaran Olahraga,Shah Alam,Selangor,"Shah Alam, Selangor, Malaysia",Private,"Msu Medical Centre, No. 4 (Pt No. 1108) Persiaran Olahraga, Shah Alam, Selangor, Malaysia"
118,Klinik Pakar Wanita Dan Bersalin Subang Permai,"No 19, Jalan Alfa Fu 6/F, Pusat Perdagangan Subang Permai, Seksyen U6",Shah Alam,Selangor,"Shah Alam, Selangor, Malaysia",Private,"Klinik Pakar Wanita Dan Bersalin Subang Permai, No 19, Jalan Alfa Fu 6/F, Pusat Perdagangan Subang Permai, Seksyen U6, Shah Alam, Selangor, Malaysia"
104,Columbia Asia Hospital,"No. 3, Persiaran Anggerik Eria, Bukit Rimau, Seksyen 32",Shah Alam,Selangor,"Shah Alam, Selangor, Malaysia",Private,"Columbia Asia Hospital, No. 3, Persiaran Anggerik Eria, Bukit Rimau, Seksyen 32, Shah Alam, Selangor, Malaysia"
128,Kpj Selangor Specialist Hospital,"Lot 1, Jalan Singa 20/1, Seksyen 20",Shah Alam,Selangor,"Shah Alam, Selangor, Malaysia",Private,"Kpj Selangor Specialist Hospital, Lot 1, Jalan Singa 20/1, Seksyen 20, Shah Alam, Selangor, Malaysia"
140,Subang Jaya Medical Centre,"No 1, Jalan Ss 12/1A",Subang Jaya,Selangor,"Subang Jaya, Selangor, Malaysia",Private,"Subang Jaya Medical Centre, No 1, Jalan Ss 12/1A, Subang Jaya, Selangor, Malaysia"
142,Sunway Medical Centre,"5, Jalan Lagoon Selatan, Bandar Sunway",Subang Jaya,Selangor,"Subang Jaya, Selangor, Malaysia",Private,"Sunway Medical Centre, 5, Jalan Lagoon Selatan, Bandar Sunway, Subang Jaya, Selangor, Malaysia"
133,Pusat Pakar Ortopedik Osc Orthopaedic Specialist Centre,"G-1-1 To G-6-1 Damen Usj, Persiaran Kewajipan, Usj 1",Subang Jaya,Selangor,"Subang Jaya, Selangor, Malaysia",Private,"Pusat Pakar Ortopedik Osc Orthopaedic Specialist Centre, G-1-1 To G-6-1 Damen Usj, Persiaran Kewajipan, Usj 1, Subang Jaya, Selangor, Malaysia"
145,Putra Medical Centre,"43, 43A, 45, 45A, 47, 47A, Jalan Brp 1/3, Bukit Rahman Putra",Sungai Buloh,Selangor,"Sungai Buloh, Selangor, Malaysia",Private,"Putra Medical Centre, 43, 43A, 45, 45A, 47, 47A, Jalan Brp 1/3, Bukit Rahman Putra, Sungai Buloh, Selangor, Malaysia"
144,Uitm Private Specialist Centre,"Level 2, 4 & 5, Bangunan Pengajian Klinikal, Fakulti Perubatan   Uitm, Kampus Sg. Buloh, Jalan Hospital",Sungai Buloh,Selangor,"Sungai Buloh, Selangor, Malaysia",Private,"Uitm Private Specialist Centre, Level 2, 4 & 5, Bangunan Pengajian Klinikal, Fakulti Perubatan   Uitm, Kampus Sg. Buloh, Jalan Hospital, Sungai Buloh, Selangor, Malaysia"
146,Pusat Kawalan Kusta Negara,Sungai Buluh,Sungai Buluh,Selangor,"Sungai Buluh, Selangor, Malaysia",Public,"Pusat Kawalan Kusta Negara, Sungai Buluh, Sungai Buluh, Selangor, Malaysia"
117,Hospital Sungai Buloh,Jalan Hospital,Sungai Buluh,Selangor,"Sungai Buluh, Selangor, Malaysia",Public,"Hospital Sungai Buloh, Jalan Hospital, Sungai Buluh, Selangor, Malaysia"
124,Hospital Tanjung Karang,Tanjung Karang,Tanjung Karang,Selangor,"Tanjung Karang, Selangor, Malaysia",Public,"Hospital Tanjung Karang, Tanjung Karang, Tanjung Karang, Selangor, Malaysia"
137,Qhc Medical Centre,"No. 2, Jalan Usj 9/5R",Uep Subang Jaya,Selangor,"Uep Subang Jaya, Selangor, Malaysia",Private,"Qhc Medical Centre, No. 2, Jalan Usj 9/5R, Uep Subang Jaya, Selangor, Malaysia"
1,Hospital Alor Gajah,"Pejabat Hospital, Hospital Alor Gajah",Alor Gajah,Melaka,"Alor Gajah, Melaka, Malaysia",Public,"Hospital Alor Gajah, Pejabat Hospital, Hospital Alor Gajah, Alor Gajah, Melaka, Malaysia"
27,Ins Specialist Centre Sdn. Bhd.,"640-641, Jalan Pintu Sepuluh",Alor Setar,Kedah,"Alor Setar, Kedah, Malaysia",Private,"Ins Specialist Centre Sdn. Bhd., 640-641, Jalan Pintu Sepuluh, Alor Setar, Kedah, Malaysia"
112,Hospital Sultanah Bahiyah,"KM 6, Jln Langgar, Alor Setar",Alor Setar,Kedah,"Alor Setar, Kedah, Malaysia",Public,"Hospital Sultanah Bahiyah, KM 6, Jln Langgar, Alor Setar, Alor Setar, Kedah, Malaysia"
28,Kedah Medical Centre,Pumpong,Alor Setar,Kedah,"Alor Setar, Kedah, Malaysia",Private,"Kedah Medical Centre, Pumpong, Alor Setar, Kedah, Malaysia"
35,Aurelius Hospital Alor Setar,"No. B-5, Persiaran Bandar Baru Mergong, Jalan Perusahaan 1, Bandar Baru Mergong",Alor Setar,Kedah,"Alor Setar, Kedah, Malaysia",Private,"Aurelius Hospital Alor Setar, No. B-5, Persiaran Bandar Baru Mergong, Jalan Perusahaan 1, Bandar Baru Mergong, Alor Setar, Kedah, Malaysia"
33,Putra Medical Centre,"888, Jalan Sekerat, Off Jalan Putra",Alor Setar,Kedah,"Alor Setar, Kedah, Malaysia",Private,"Putra Medical Centre, 888, Jalan Sekerat, Off Jalan Putra, Alor Setar, Kedah, Malaysia"
4,Hospital Balik Pulau,Balik Pulau,Balik Pulau,Pulau Pinang,"Balik Pulau, Pulau Pinang, Malaysia",Public,"Hospital Balik Pulau, Balik Pulau, Balik Pulau, Pulau Pinang, Malaysia"
5,Hospital Baling,Jala Hospital,Baling,Kedah,"Baling, Kedah, Malaysia",Public,"Hospital Baling, Jala Hospital, Baling, Kedah, Malaysia"
60,Hospital Melaka,Jalan Mufti Haji Khalil,Bandar Melaka,Melaka,"Melaka, Melaka, Malaysia",Public,"Hospital Melaka, Jalan Mufti Haji Khalil, Melaka, Melaka, Malaysia"
41,Pantai Hospital Ayer Keroh,"No. 2418-1, Km 8 Lebuh Ayer Keroh",Bandar Melaka,Melaka,"Melaka, Melaka, Malaysia",Private,"Pantai Hospital Ayer Keroh, No. 2418-1, Km 8 Lebuh Ayer Keroh, Melaka, Melaka, Malaysia"
40,Oriental Melaka Straits Medical Centre,Pusat Perubatan Klebang,Bandar Melaka,Melaka,"Melaka, Melaka, Malaysia",Private,"Oriental Melaka Straits Medical Centre, Pusat Perubatan Klebang, Melaka, Melaka, Malaysia"
39,Mahkota Medical Centre,"3, Mahkota Melaka, Jalan Melaka",Bandar Melaka,Melaka,"Melaka, Melaka, Malaysia",Private,"Mahkota Medical Centre , 3, Mahkota Melaka, Jalan Melaka, Melaka, Melaka, Malaysia"
42,Putra Specialist Hospital (Melaka) Sdn. Bhd.,"169, Jalan Bendahara",Bandar Melaka,Melaka,"Melaka, Melaka, Malaysia",Private,"Putra Specialist Hospital (Melaka) Sdn. Bhd., 169, Jalan Bendahara, Melaka, Melaka, Malaysia"
28,Hospital Jempol,Bandar Seri Jempol,Bandar Seri Jempol,Negeri Sembilan,"Bandar Seri Jempol, Negeri Sembilan, Malaysia",Public,"Hospital Jempol, Bandar Seri Jempol, Bandar Seri Jempol, Negeri Sembilan, Malaysia"
7,Hospital Batu Gajah,Jalan Changkat,Batu Gajah,Perak,"Batu Gajah, Perak, Malaysia",Public,"Hospital Batu Gajah, Jalan Changkat, Batu Gajah, Perak, Malaysia"
23,Putra Specialist Hospital (Batu Pahat) Sdn. Bhd.,"No. 1, Jalan Peserai",Batu Pahat,Johor,"Batu Pahat, Johor, Malaysia",Private,"Putra Specialist Hospital (Batu Pahat) Sdn. Bhd., No. 1, Jalan Peserai, Batu Pahat, Johor, Malaysia"
114,Hospital Sultanah Nora Ismail,"Jalan Korma,83000 Batu Pahat",Batu Pahat,Johor,"Batu Pahat, Johor, Malaysia",Public,"Hospital Sultanah Nora Ismail, Jalan Korma,83000 Batu Pahat, Batu Pahat, Johor, Malaysia"
12,Kpj Batu Pahat Specialist Hospital,"No. 1, Jalan Mutiara Gading Utama 1, Taman Mutiara Gading",Batu Pahat,Johor,"Batu Pahat, Johor, Malaysia",Private,"Kpj Batu Pahat Specialist Hospital, No. 1, Jalan Mutiara Gading Utama 1, Taman Mutiara Gading, Batu Pahat, Johor, Malaysia"
17,Pantai Hospital Batu Pahat,"No. 9S, Jalan Bintang Satu, Taman Koperasi Bahagia",Batu Pahat,Johor,"Batu Pahat, Johor, Malaysia",Private,"Pantai Hospital Batu Pahat, No. 9S, Jalan Bintang Satu, Taman Koperasi Bahagia, Batu Pahat, Johor, Malaysia"
8,Hospital Bau,"Batu 1 ½,  Jalan Bau-Lundu",Bau,Sarawak,"Bau, Sarawak, Malaysia",Public,"Hospital Bau, Batu 1 ½,  Jalan Bau-Lundu, Bau, Sarawak, Malaysia"
66,Pantai Hospital Penang,"82, Jalan Tengah, Bayan Baru",Bayan Lepas,Pulau Pinang,"Bayan Lepas, Pulau Pinang, Malaysia",Private,"Pantai Hospital Penang, 82, Jalan Tengah, Bayan Baru, Bayan Lepas, Pulau Pinang, Malaysia"
9,Hospital Beaufort,Peti Surat 40,Beaufort,Sabah,"Beaufort, Sabah, Malaysia",Public,"Hospital Beaufort, Peti Surat 40, Beaufort, Sabah, Malaysia"
10,Hospital Beluran,Karung Berkunci No : 02,Beluran,Sabah,"Beluran, Sabah, Malaysia",Public,"Hospital Beluran, Karung Berkunci No : 02, Beluran, Sabah, Malaysia"
11,Hospital Bentong,28700 Bentong,Bentong,Pahang,"Bentong, Pahang, Malaysia",Public,"Hospital Bentong, 28700 Bentong, Bentong, Pahang, Malaysia"
12,Hospital Besut,"Jalan Pasir Akar, Jerteh",Besut,Terengganu,"Besut, Terengganu, Malaysia",Public,"Hospital Besut, Jalan Pasir Akar, Jerteh, Besut, Terengganu, Malaysia"
13,Hospital Betong,Jalan Betong,Betong,Sarawak,"Betong, Sarawak, Malaysia",Public,"Hospital Betong, Jalan Betong, Betong, Sarawak, Malaysia"
162,Kemena Pacific Hospital,"Lot 3582 & 3583, Blok 26, Kemena Land District, Jalan Tan Sri Ikhwan, Tanjung Kidurong",Bintulu,Sarawak,"Bintulu, Sarawak, Malaysia",Private,"Kemena Pacific Hospital, Lot 3582 & 3583, Blok 26, Kemena Land District, Jalan Tan Sri Ikhwan, Tanjung Kidurong, Bintulu, Sarawak, Malaysia"
14,Hospital Bintulu,Jalan Nyabau,Bintulu,Sarawak,"Bintulu, Sarawak, Malaysia",Public,"Hospital Bintulu, Jalan Nyabau, Bintulu, Sarawak, Malaysia"
159,Bintulu Medical Centre,"Lot 6009, Block 31, Kemena Land District",Bintulu,Sarawak,"Bintulu, Sarawak, Malaysia",Private,"Bintulu Medical Centre, Lot 6009, Block 31, Kemena Land District, Bintulu, Sarawak, Malaysia"
16,Hospital Changkat Melintang,"Lambor Kanan,Parit",Bota,Perak,"Bota, Perak, Malaysia",Public,"Hospital Changkat Melintang, Lambor Kanan,Parit, Bota, Perak, Malaysia"
61,Kpj Penang Specialist Hospital,"570, Jalan Perda Utama, Bandar Perda",Bukit Mertajam,Pulau Pinang,"Bukit Mertajam, Pulau Pinang, Malaysia",Private,"Kpj Penang Specialist Hospital, 570, Jalan Perda Utama, Bandar Perda, Bukit Mertajam, Pulau Pinang, Malaysia"
15,Hospital Bukit Mertajam,"Jalan Kulim, Bukit Mertajam",Bukit Mertajam,Pulau Pinang,"Bukit Mertajam, Pulau Pinang, Malaysia",Public,"Hospital Bukit Mertajam, Jalan Kulim, Bukit Mertajam, Bukit Mertajam, Pulau Pinang, Malaysia"
62,Ks Wan & Liow Specialist Maternity Centre Sdn Bhd,"No. 17 & 19, Lorong Tembikai 6, Pusat Komersial Sri Rambai",Bukit Mertajam,Pulau Pinang,"Bukit Mertajam, Pulau Pinang, Malaysia",Private,"Ks Wan & Liow Specialist Maternity Centre Sdn Bhd, No. 17 & 19, Lorong Tembikai 6, Pusat Komersial Sri Rambai, Bukit Mertajam, Pulau Pinang, Malaysia"
55,Bagan Specialist Centre,Jalan Bagan Satu,Butterworth,Pulau Pinang,"Butterworth, Pulau Pinang, Malaysia",Private,"Bagan Specialist Centre, Jalan Bagan Satu, Butterworth, Pulau Pinang, Malaysia"
113,Hospital Sultanah Hajjah Kalsom,"Tanah Rata,",Cameron Highlands,Pahang,"Cameron Highlands, Pahang, Malaysia",Public,"Hospital Sultanah Hajjah Kalsom, Tanah Rata,, Cameron Highlands, Pahang, Malaysia"
178,Cheras Specialist Maternity Centre,"55, Jalan 2/90 Taman Pertama",Cheras,Wp Kuala Lumpur,"Cheras, Wp Kuala Lumpur, Malaysia",Private,"Cheras Specialist Maternity Centre, 55, Jalan 2/90 Taman Pertama, Cheras, Wp Kuala Lumpur, Malaysia"
17,Hospital Dalat,Jalan Oya-Dalat,Dalat,Sarawak,"Dalat, Sarawak, Malaysia",Public,"Hospital Dalat, Jalan Oya-Dalat, Dalat, Sarawak, Malaysia"
18,Hospital Daro,Jalan Itol,Daro,Sarawak,"Daro, Sarawak, Malaysia",Public,"Hospital Daro, Jalan Itol, Daro, Sarawak, Malaysia"
20,Hospital Dungun,Hospital Dungun,Dungun,Terengganu,"Dungun, Terengganu, Malaysia",Public,"Hospital Dungun, Hospital Dungun, Dungun, Terengganu, Malaysia"
67,Peace Medical Centre,"81, Lorong Selamat",Georgetown,Pulau Pinang,"Georgetown, Pulau Pinang, Malaysia",Private,"Peace Medical Centre, 81, Lorong Selamat, Georgetown, Pulau Pinang, Malaysia"
57,Gleneagles Hospital Penang,"No. 1, Jalan Pangkor",Georgetown,Pulau Pinang,"Georgetown, Pulau Pinang, Malaysia",Private,"Gleneagles Hospital Penang, No. 1, Jalan Pangkor, Georgetown, Pulau Pinang, Malaysia"
60,Island Hospital,"No. 308, Jalan Macalister",Georgetown,Pulau Pinang,"Georgetown, Pulau Pinang, Malaysia",Private,"Island Hospital, No. 308, Jalan Macalister, Georgetown, Pulau Pinang, Malaysia"
56,Georgetown Specialist Hospital,"No. 12-A, Jalan Masjid Negeri",Georgetown,Pulau Pinang,"Georgetown, Pulau Pinang, Malaysia",Private,"Georgetown Specialist Hospital, No. 12-A, Jalan Masjid Negeri, Georgetown, Pulau Pinang, Malaysia"
65,Optimax Eye Specialist Hospital (Penang),"Tingkat Bawah, No. 223, Jalan Masjid Negeri",Georgetown,Pulau Pinang,"Georgetown, Pulau Pinang, Malaysia",Private,"Optimax Eye Specialist Hospital (Penang), Tingkat Bawah, No. 223, Jalan Masjid Negeri, Georgetown, Pulau Pinang, Malaysia"
72,Hospital Lam Wah Ee,"141, Jalan Tan Sri The Ewe Lim",Georgetown,Pulau Pinang,"Georgetown, Pulau Pinang, Malaysia",Private,"Hospital Lam Wah Ee, 141, Jalan Tan Sri The Ewe Lim, Georgetown, Pulau Pinang, Malaysia"
73,Northern Heart Hospital Penang,"No 2 Lebuhraya Peel, Seksyen 4",Georgetown,Pulau Pinang,"Georgetown, Pulau Pinang, Malaysia",Private,"Northern Heart Hospital Penang , No 2 Lebuhraya Peel, Seksyen 4, Georgetown, Pulau Pinang, Malaysia"
58,Hope Children Hospital – Gottlieb,"25B, C & D, Jalan Gottlieb",Georgetown,Pulau Pinang,"Georgetown, Pulau Pinang, Malaysia",Private,"Hope Children Hospital – Gottlieb, 25B, C & D, Jalan Gottlieb, Georgetown, Pulau Pinang, Malaysia"
63,Loh Guan Lye Specialists Centre,"238, Macalister Dan 19 & 21, Jalan Logan",Georgetown,Pulau Pinang,"Georgetown , Pulau Pinang, Malaysia",Private,"Loh Guan Lye Specialists Centre, 238, Macalister Dan 19 & 21, Jalan Logan , Georgetown , Pulau Pinang, Malaysia"
22,Hospital Gerik,Jalan Intan,Grik,Perak,"Grik, Perak, Malaysia",Public,"Hospital Gerik, Jalan Intan, Grik, Perak, Malaysia"
23,Hospital Gua Musang,Bandar Baru,Gua Musang,Kelantan,"Gua Musang, Kelantan, Malaysia",Public,"Hospital Gua Musang, Bandar Baru, Gua Musang, Kelantan, Malaysia"
84,Kmc Medical Centre,"20A, Jalan Chung Thye Phin",Ipoh,Perak,"Ipoh, Perak, Malaysia",Private,"Kmc Medical Centre, 20A, Jalan Chung Thye Phin, Ipoh, Perak, Malaysia"
82,Hospital Raja Permaisuri Bainun,Jalan Hospital,Ipoh,Perak,"Ipoh, Perak, Malaysia",Public,"Hospital Raja Permaisuri Bainun, Jalan Hospital, Ipoh, Perak, Malaysia"
85,Ipoh Specialist Hospital,"26, Jalan Raja Dihilir",Ipoh,Perak,"Ipoh, Perak, Malaysia",Private,"Ipoh Specialist Hospital, 26, Jalan Raja Dihilir, Ipoh, Perak, Malaysia"
90,Pusat Pakar Permata Raoofah,"No. 37, 39 & 41, Lengkuk Kledang Raya, Taman Kledang Jaya, Jalan Jelapang",Ipoh,Perak,"Ipoh, Perak, Malaysia",Private,"Pusat Pakar Permata Raoofah, No. 37, 39 & 41, Lengkuk Kledang Raya, Taman Kledang Jaya, Jalan Jelapang, Ipoh, Perak, Malaysia"
80,Hospital Seri Botani,"No. 3, Dataran Botani 2, Bandar Seri Botani",Ipoh,Perak,"Ipoh, Perak, Malaysia",Private,"Hospital Seri Botani, No. 3, Dataran Botani 2, Bandar Seri Botani, Ipoh, Perak, Malaysia"
79,Hospital Fatimah,"1, Leboh Chew Peng Loon, Off Jalan Dato' Lau Pak Khuan, Ipoh Garden",Ipoh,Perak,"Ipoh, Perak, Malaysia",Private,"Hospital Fatimah, 1, Leboh Chew Peng Loon, Off Jalan Dato' Lau Pak Khuan, Ipoh Garden, Ipoh, Perak, Malaysia"
89,Perak Community Specialist Hospital,"No. 277, Jalan Raja Permaisuri Bainun",Ipoh,Perak,"Ipoh, Perak, Malaysia",Private,"Perak Community Specialist Hospital, No. 277, Jalan Raja Permaisuri Bainun, Ipoh, Perak, Malaysia"
87,Pantai Hospital Ipoh,"126, Jalan Tambun",Ipoh,Perak,"Ipoh, Perak, Malaysia",Private,"Pantai Hospital Ipoh, 126, Jalan Tambun, Ipoh, Perak, Malaysia"
212,Sunway Medical Centre Ipoh,"2, Persiaran Sunway, Sunway City Ipoh",Ipoh,Perak,"Ipoh, Perak, Malaysia",Private,"Sunway Medical Centre Ipoh, 2, Persiaran Sunway, Sunway City Ipoh, Ipoh, Perak, Malaysia"
78,Hospital Ar- Ridzuan,"A-1, B-G-3 & B-G-5, B-1-1 &B-1-3, Greentown Suria, Jalan Dato’ Seri Ahmad Said",Ipoh,Perak,"Ipoh, Perak, Malaysia",Private,"Hospital Ar- Ridzuan, A-1, B-G-3 & B-G-5, B-1-1 &B-1-3, Greentown Suria, Jalan Dato’ Seri Ahmad Said, Ipoh, Perak, Malaysia"
2,Columbia Asia Hospital  -  Iskandar Puteri,"Persiaran Afiat, Taman Kesihatan Afiat",Iskandar Puteri,Johor,"Iskandar Puteri, Johor, Malaysia",Private,"Columbia Asia Hospital  -  Iskandar Puteri, Persiaran Afiat, Taman Kesihatan Afiat, Iskandar Puteri, Johor, Malaysia"
3,Gleneagles Hospital Johor,"No. 2, Jalan Medini Utara 4, Medini Iskandar",Iskandar Puteri,Johor,"Iskandar Puteri, Johor, Malaysia",Private,"Gleneagles Hospital Johor, No. 2, Jalan Medini Utara 4, Medini Iskandar, Iskandar Puteri, Johor, Malaysia"
25,Hospital Jasin,77000 Jasin,Jasin,Melaka,"Jasin, Melaka, Malaysia",Public,"Hospital Jasin, 77000 Jasin, Jasin, Melaka, Malaysia"
26,Hospital Jelebu,71600 Jelebu,Jelebu,Negeri Sembilan,"Jelebu, Negeri Sembilan, Malaysia",Public,"Hospital Jelebu, 71600 Jelebu, Jelebu, Negeri Sembilan, Malaysia"
27,Hospital Jeli,17600 Jeli,Jeli,Kelantan,"Jeli, Kelantan, Malaysia",Public,"Hospital Jeli, 17600 Jeli, Jeli, Kelantan, Malaysia"
30,Hospital Jerantut,27000 Jerantut,Jerantut,Pahang,"Jerantut, Pahang, Malaysia",Public,"Hospital Jerantut, 27000 Jerantut, Jerantut, Pahang, Malaysia"
29,Mahsuri Medical Centre (Mmc),"No. 1, 2 & 3, Jalan Mahsuri, 1C, Bandar Baru Darulaman",Jitra,Kedah,"Jitra, Kedah, Malaysia",Private,"Mahsuri Medical Centre (Mmc), No. 1, 2 & 3, Jalan Mahsuri, 1C, Bandar Baru Darulaman, Jitra, Kedah, Malaysia"
31,Hospital Jitra,"Jalan Changlun, Jitra Kedah",Jitra,Kedah,"Jitra, Kedah, Malaysia",Public,"Hospital Jitra, Jalan Changlun, Jitra Kedah, Jitra, Kedah, Malaysia"
15,Landmark Medical Centre,"Unit 33B, Level 33B, Menara Landmark, Jalan Ngee Heng",Johor Bahru,Johor,"Johor Bahru, Johor, Malaysia",Private,"Landmark Medical Centre, Unit 33B, Level 33B, Menara Landmark, Jalan Ngee Heng, Johor Bahru, Johor, Malaysia"
111,Hospital Sultanah Aminah,Johor Bahru,Johor Bahru,Johor,"Johor Bahru, Johor, Malaysia",Public,"Hospital Sultanah Aminah, Johor Bahru, Johor Bahru, Johor, Malaysia"
5,Hospital Pakar Skudai (Skudai Surgical Centre (M) Sdn. Bhd.),"Tingkat Bawah, No. 5 & 7, Jalan Ronggeng 2, Taman Skudai Baru",Johor Bahru,Johor,"Johor Bahru, Johor, Malaysia",Private,"Hospital Pakar Skudai (Skudai Surgical Centre (M) Sdn. Bhd.), Tingkat Bawah, No. 5 & 7, Jalan Ronggeng 2, Taman Skudai Baru, Johor Bahru, Johor, Malaysia"
109,Hospital Sultan Ismail,"Jalan Persiaran Mutiara Emas Utama, Taman Miount Austin",Johor Bahru,Johor,"Johor Bahru, Johor, Malaysia",Public,"Hospital Sultan Ismail, Jalan Persiaran Mutiara Emas Utama, Taman Miount Austin, Johor Bahru, Johor, Malaysia"
1,Columbia Asia Hospital,"Persiaran Southkey 5, Kota Southkey",Johor Bahru,Johor,"Johor Bahru, Johor, Malaysia",Private,"Columbia Asia Hospital, Persiaran Southkey 5, Kota Southkey, Johor Bahru, Johor, Malaysia"
73,Hospital Permai,Jalan Tampoi,Johor Bahru,Johor,"Johor Bahru, Johor, Malaysia",Public,"Hospital Permai, Jalan Tampoi, Johor Bahru, Johor, Malaysia"
16,Maria Hospital,"Blok A, Wisma Maria, Jalan Ngee Heng",Johor Bahru,Johor,"Johor Bahru, Johor, Malaysia",Private,"Maria Hospital, Blok A, Wisma Maria, Jalan Ngee Heng, Johor Bahru, Johor, Malaysia"
19,Pusat Pakar Bersalin Tebrau,"No. 2, Pusat Pakar Bersalin Tebrau, Jalan Kencana Emas 1/7, Kawasan Perindustrian Tebrau Iii",Johor Bahru,Johor,"Johor Bahru, Johor, Malaysia",Private,"Pusat Pakar Bersalin Tebrau, No. 2, Pusat Pakar Bersalin Tebrau, Jalan Kencana Emas 1/7, Kawasan Perindustrian Tebrau Iii, Johor Bahru, Johor, Malaysia"
25,Jb Specialist Hospital,"38, 38-1 & 40, 40-1 Jalan Ros Merah 3/2, Taman Johor Jaya",Johor Bahru,Johor,"Johor Bahru, Johor, Malaysia",Private,"Jb Specialist Hospital, 38, 38-1 & 40, 40-1 Jalan Ros Merah 3/2, Taman Johor Jaya, Johor Bahru, Johor, Malaysia"
10,Kpj Bandar Dato’ Onn Specialist Hospital,"No 2, Jalan Bukit Mutiara, Taman Bukit Mutiara",Johor Bahru,Johor,"Johor Bahru, Johor, Malaysia",Private,"Kpj Bandar Dato’ Onn Specialist Hospital, No 2, Jalan Bukit Mutiara, Taman Bukit Mutiara, Johor Bahru, Johor, Malaysia"
4,Johor Specialist Hospital,"39-B, Jalan Abdul Samad",Johor Bahru,Johor,"Johor Bahru, Johor, Malaysia",Private,"Johor Specialist Hospital, 39-B, Jalan Abdul Samad, Johor Bahru, Johor, Malaysia"
8,Kensington Green Specialist Centre Sdn. Bhd.,"No. 2, Jalan Ceria 20, Taman Nusa Indah, Iskandar Puteri",Johor Bahru,Johor,"Johor Bahru, Johor, Malaysia",Private,"Kensington Green Specialist Centre Sdn. Bhd., No. 2, Jalan Ceria 20, Taman Nusa Indah, Iskandar Puteri, Johor Bahru, Johor, Malaysia"
7,Kempas Medical Centre,"Lot Ptd 7522, Jalan Kempas Baru",Johor Bahru,Johor,"Johor Bahru, Johor, Malaysia",Private,"Kempas Medical Centre, Lot Ptd 7522, Jalan Kempas Baru, Johor Bahru, Johor, Malaysia"
14,Puteri Specialist Hospital,"No. 33, Jalan Tun Abdul Razak, (Susur 5)",Johor Bahru,Johor,"Johor Bahru, Johor, Malaysia",Private,"Puteri Specialist Hospital, No. 33, Jalan Tun Abdul Razak, (Susur 5), Johor Bahru, Johor, Malaysia"
33,Hospital Kampar,Jalan Hospital,Kampar,Perak,"Kampar, Perak, Malaysia",Public,"Hospital Kampar, Jalan Hospital, Kampar, Perak, Malaysia"
81,Hospital Universiti Tunku Abdul Rahman,Jalan Hospital Utar,Kampar,Perak,"Kampar, Perak, Malaysia",Private,"Hospital Universiti Tunku Abdul Rahman, Jalan Hospital Utar, Kampar, Perak, Malaysia"
135,Hospital Tuanku Fauziah,"Jalan Kolam, 01000 Kangar",Kangar,Perlis,"Kangar, Perlis, Malaysia",Public,"Hospital Tuanku Fauziah, Jalan Kolam, 01000 Kangar, Kangar, Perlis, Malaysia"
93,Kpj Perlis Specialist Hospital (Hospital Pakar Kpj Perlis),"Lot 2550 & 2575, Pengkalan Asam, Mukim Seriab",Kangar,Perlis,"Kangar, Perlis, Malaysia",Private,"Kpj Perlis Specialist Hospital (Hospital Pakar Kpj Perlis), Lot 2550 & 2575, Pengkalan Asam, Mukim Seriab, Kangar, Perlis, Malaysia"
34,Hospital Kanowit,Jalan Kanowit/ Durin,Kanowit,Sarawak,"Kanowit, Sarawak, Malaysia",Public,"Hospital Kanowit, Jalan Kanowit/ Durin, Kanowit, Sarawak, Malaysia"
35,Hospital Kapit,Jalan Memora,Kapit,Sarawak,"Kapit, Sarawak, Malaysia",Public,"Hospital Kapit, Jalan Memora, Kapit, Sarawak, Malaysia"
36,Hospital Kemaman,"Jalan Da' Omar, Cukai",Kemaman,Terengganu,"Kemaman, Terengganu, Malaysia",Public,"Hospital Kemaman, Jalan Da' Omar, Cukai, Kemaman, Terengganu, Malaysia"
37,Hospital Keningau,Peti Surat 11,Keningau,Sabah,"Keningau, Sabah, Malaysia",Public,"Hospital Keningau, Peti Surat 11, Keningau, Sabah, Malaysia"
38,Hospital Kepala Batas,"Jalan Bertam, Kepala Batas",Kepala Batas,Pulau Pinang,"Kepala Batas, Pulau Pinang, Malaysia",Public,"Hospital Kepala Batas, Jalan Bertam, Kepala Batas, Kepala Batas, Pulau Pinang, Malaysia"
39,Hospital Kinabatangan,W.D.T 200,Kinabatangan,Sabah,"Kinabatangan, Sabah, Malaysia",Public,"Hospital Kinabatangan, W.D.T 200, Kinabatangan, Sabah, Malaysia"
21,"Hospital Enche' Besar Hajjah Kalsom, Kluang","KM 5, Jln Kota Tinggi",Kluang,Johor,"Kluang, Johor, Malaysia",Public,"Hospital Enche' Besar Hajjah Kalsom, Kluang, KM 5, Jln Kota Tinggi, Kluang, Johor, Malaysia"
26,Pusat Pakar Wanita Dan Perbidanan Johor,"No 38-42, Jalan Cantik",Kluang,Johor,"Kluang, Johor, Malaysia",Private,"Pusat Pakar Wanita Dan Perbidanan Johor, No 38-42, Jalan Cantik, Kluang, Johor, Malaysia"
13,Kpj Kluang Specialist Hospital,"Ptd 91374, Jalan Saujana Utama, Taman Saujana Kluang, Mukim Kluang",Kluang,Johor,"Kluang, Johor, Malaysia",Private,"Kpj Kluang Specialist Hospital, Ptd 91374, Jalan Saujana Utama, Taman Saujana Kluang, Mukim Kluang, Kluang, Johor, Malaysia"
9,Kluang Specialist Maternity Centre,"No. 2, 3, 4, Jalan Haji Manap Nordin, Kluang Baru",Kluang,Johor,"Kluang, Johor, Malaysia",Private,"Kluang Specialist Maternity Centre, No. 2, 3, 4, Jalan Haji Manap Nordin, Kluang Baru, Kluang, Johor, Malaysia"
40,Hospital Kota Belud,Peti Surat 159,Kota Belud,Sabah,"Kota Belud, Sabah, Malaysia",Public,"Hospital Kota Belud, Peti Surat 159, Kota Belud, Sabah, Malaysia"
37,Pusat Perubatan An-Nisa’,"Ground Floor, Jkr 284, Jalan Sultan Ibrahim",Kota Bharu,Kelantan,"Kota Bharu, Kelantan, Malaysia",Private,"Pusat Perubatan An-Nisa’, Ground Floor, Jkr 284, Jalan Sultan Ibrahim, Kota Bharu, Kelantan, Malaysia"
81,Hospital Raja Perempuan Zainab II,Jalan Hospital,Kota Bharu,Kelantan,"Kota Bharu, Kelantan, Malaysia",Public,"Hospital Raja Perempuan Zainab II, Jalan Hospital, Kota Bharu, Kelantan, Malaysia"
36,Kpj Perdana Specialist Hospital,"Lot Pt 37 & 600, Dan Lot 684 (Level 1, 2 & 3) Seksyen14, Jalan Bayam",Kota Bharu,Kelantan,"Kota Bharu, Kelantan, Malaysia",Private,"Kpj Perdana Specialist Hospital, Lot Pt 37 & 600, Dan Lot 684 (Level 1, 2 & 3) Seksyen14, Jalan Bayam, Kota Bharu, Kelantan, Malaysia"
38,Kota Bharu Medical Centre,"Pt 179 - 184, Jalan Sultan Yahya Petra, Lundang",Kota Bharu,Kelantan,"Kota Bharu, Kelantan, Malaysia",Private,"Kota Bharu Medical Centre, Pt 179 - 184, Jalan Sultan Yahya Petra, Lundang, Kota Bharu, Kelantan, Malaysia"
80,Hospital Queen Elizabeth II,"Lorong Bersatu, Jalan Damai Luyang, Kota Kinabalu",Kota Kinabalu,Sabah,"Kota Kinabalu, Sabah, Malaysia",Public,"Hospital Queen Elizabeth II, Lorong Bersatu, Jalan Damai Luyang, Kota Kinabalu, Kota Kinabalu, Sabah, Malaysia"
152,Gleneagles Hospital Kota Kinabalu,"Riverson @ Sembulan, Blok A-1, Lorong Riverson @ Sembulan",Kota Kinabalu,Sabah,"Kota Kinabalu, Sabah, Malaysia",Private,"Gleneagles Hospital Kota Kinabalu, Riverson @ Sembulan, Blok A-1, Lorong Riverson @ Sembulan, Kota Kinabalu, Sabah, Malaysia"
62,Hospital Mesra Bukit Padang,Peti Surat 11342,Kota Kinabalu,Sabah,"Kota Kinabalu, Sabah, Malaysia",Public,"Hospital Mesra Bukit Padang, Peti Surat 11342, Kota Kinabalu, Sabah, Malaysia"
156,Rafflesia Medical Centre Sdn. Bhd.,"Lot 4-8, Millenium Commercial Centre, Off Jalan Lintas",Kota Kinabalu,Sabah,"Kota Kinabalu, Sabah, Malaysia",Private,"Rafflesia Medical Centre Sdn. Bhd., Lot 4-8, Millenium Commercial Centre, Off Jalan Lintas, Kota Kinabalu, Sabah, Malaysia"
79,Hospital Queen Elizabeth,Karung Berkunci N0.2029,Kota Kinabalu,Sabah,"Kota Kinabalu, Sabah, Malaysia",Public,"Hospital Queen Elizabeth, Karung Berkunci N0.2029, Kota Kinabalu, Sabah, Malaysia"
153,Jesselton Medical Centre Sdn. Bhd.,"Metro Town, Jalan Bunga Ulam Raja, Jalan Lintas, Off Jalan Tuaran",Kota Kinabalu,Sabah,"Kota Kinabalu, Sabah, Malaysia",Private,"Jesselton Medical Centre Sdn. Bhd., Metro Town, Jalan Bunga Ulam Raja, Jalan Lintas, Off Jalan Tuaran, Kota Kinabalu, Sabah, Malaysia"
141,Hospital Wanita dan Kanak-Kanak Sabah,Karung Berkunci 187,Kota Kinabalu,Sabah,"Kota Kinabalu, Sabah, Malaysia",Public,"Hospital Wanita dan Kanak-Kanak Sabah, Karung Berkunci 187, Kota Kinabalu, Sabah, Malaysia"
155,Kpj Sabah Specialist Hospital,"Lot No. 2, Off Jalan Damai, Luyang",Kota Kinabalu,Sabah,"Kota Kinabalu, Sabah, Malaysia",Private,"Kpj Sabah Specialist Hospital, Lot No. 2, Off Jalan Damai, Luyang, Kota Kinabalu, Sabah, Malaysia"
41,Hospital Kota Marudu,Peti Surat 255,Kota Marudu,Sabah,"Kota Marudu, Sabah, Malaysia",Public,"Hospital Kota Marudu, Peti Surat 255, Kota Marudu, Sabah, Malaysia"
42,Hospital Kota Tinggi,Jalan Tun Habah,Kota Tinggi,Johor,"Kota Tinggi, Johor, Malaysia",Public,"Hospital Kota Tinggi, Jalan Tun Habah, Kota Tinggi, Johor, Malaysia"
24,Hospital Hulu Terengganu,"Batu 23, Jalan Kuala Berang",Kuala Berang,Terengganu,"Kuala Berang, Terengganu, Malaysia",Public,"Hospital Hulu Terengganu, Batu 23, Jalan Kuala Berang, Kuala Berang, Terengganu, Malaysia"
43,Hospital Kuala Kangsar,Jalan Sultan Idris Shah 1,Kuala Kangsar,Perak,"Kuala Kangsar, Perak, Malaysia",Public,"Hospital Kuala Kangsar, Jalan Sultan Idris Shah 1, Kuala Kangsar, Perak, Malaysia"
110,Hospital Sultan Ismail Petra,"KM 6, Jalan Kuala Krai - Gua Musang",Kuala Krai,Kelantan,"Kuala Krai, Kelantan, Malaysia",Public,"Hospital Sultan Ismail Petra, KM 6, Jalan Kuala Krai - Gua Musang, Kuala Krai, Kelantan, Malaysia"
45,Hospital Kuala Lipis,27200 K.Lipis,Kuala Lipis,Pahang,"Kuala Lipis, Pahang, Malaysia",Public,"Hospital Kuala Lipis, 27200 K.Lipis, Kuala Lipis, Pahang, Malaysia"
193,Kmi Taman Desa Medical Centre,"45, Jalan Desa, Taman Desa, Off Jalan Klang Lama",Kuala Lumpur,Wp Kuala Lumpur,"W.P. Kuala Lumpur, W.P. Kuala Lumpur, Malaysia",Private,"Kmi Taman Desa Medical Centre, 45, Jalan Desa, Taman Desa, Off Jalan Klang Lama, W.P. Kuala Lumpur, W.P. Kuala Lumpur, Malaysia"
204,Pusat Perubatan Roopi Medical Centre Sdn Bhd,"86, Jalan Dato Haji Eusoff, Damai Complex",Kuala Lumpur,Wp Kuala Lumpur,"W.P. Kuala Lumpur, W.P. Kuala Lumpur, Malaysia",Private,"Pusat Perubatan Roopi Medical Centre Sdn Bhd, 86, Jalan Dato Haji Eusoff, Damai Complex, W.P. Kuala Lumpur, W.P. Kuala Lumpur, Malaysia"
206,Tung Shin Hospital,Ukm Specialist Centre Sdn. Bhd.,Kuala Lumpur,Wp Kuala Lumpur,"W.P. Kuala Lumpur, W.P. Kuala Lumpur, Malaysia",Private,"Tung Shin Hospital, Ukm Specialist Centre Sdn. Bhd., W.P. Kuala Lumpur, W.P. Kuala Lumpur, Malaysia"
188,Pusat Perubatan Naluri,"No. 94,92-2, 90-2, 88-2 & 86-2 Jalan Wangsa Delima 6, Pusat Bandar Wangsa Maju",Kuala Lumpur,Wp Kuala Lumpur,"W.P. Kuala Lumpur, W.P. Kuala Lumpur, Malaysia",Private,"Pusat Perubatan Naluri, No. 94,92-2, 90-2, 88-2 & 86-2 Jalan Wangsa Delima 6, Pusat Bandar Wangsa Maju

, W.P. Kuala Lumpur, W.P. Kuala Lumpur, Malaysia"
205,Sunway Medical Centre Velocity,"Pusat Perubatan Sunway Velocity, Lingkaran Sv, Sunway Velocity",Kuala Lumpur,Wp Kuala Lumpur,"W.P. Kuala Lumpur, W.P. Kuala Lumpur, Malaysia",Private,"Sunway Medical Centre Velocity, Pusat Perubatan Sunway Velocity, Lingkaran Sv, Sunway Velocity, W.P. Kuala Lumpur, W.P. Kuala Lumpur, Malaysia"
201,Pusat Pakar Ortopedik Quill Orthopaedic Specialist Centre,"No. 95, 97, 99, 95A, 97A, 99A, 101A, 95B, 97B, 99B & 101B, Jalan Aminuddin Baki, Taman Tun Dr. Ismail",Kuala Lumpur,Wp Kuala Lumpur,"W.P. Kuala Lumpur, W.P. Kuala Lumpur, Malaysia",Private,"Pusat Pakar Ortopedik Quill Orthopaedic Specialist Centre, No. 95, 97, 99, 95A, 97A, 99A, 101A, 95B, 97B, 99B & 101B, Jalan Aminuddin Baki, Taman Tun Dr. Ismail, W.P. Kuala Lumpur, W.P. Kuala Lumpur, Malaysia"
200,Pusat Diagnostik Jantung Maa Medicare Cardiac Diagnostic Centre,"No. 183, 4Th And 5Th Floor, Wisma Maa-Medicare, Jalan Ipoh",Kuala Lumpur,Wp Kuala Lumpur,"W.P. Kuala Lumpur, W.P. Kuala Lumpur, Malaysia",Private,"Pusat Diagnostik Jantung Maa Medicare Cardiac Diagnostic Centre, No. 183, 4Th And 5Th Floor, Wisma Maa-Medicare, Jalan Ipoh, W.P. Kuala Lumpur, W.P. Kuala Lumpur, Malaysia"
199,Pudu Specialists' Centre Sdn Bhd,"20-26, Jalan Baba, Off Changkat Thambi Dollah,Pudu",Kuala Lumpur,Wp Kuala Lumpur,"W.P. Kuala Lumpur, W.P. Kuala Lumpur, Malaysia",Private,"Pudu Specialists' Centre Sdn Bhd, 20-26, Jalan Baba, Off Changkat Thambi Dollah,Pudu, W.P. Kuala Lumpur, W.P. Kuala Lumpur, Malaysia"
203,Prince Court Medical Centre,"39, Jalan Kia Peng",Kuala Lumpur,Wp Kuala Lumpur,"W.P. Kuala Lumpur, W.P. Kuala Lumpur, Malaysia",Private,"Prince Court Medical Centre , 39, Jalan Kia Peng, W.P. Kuala Lumpur, W.P. Kuala Lumpur, Malaysia"
198,Parkcity Medical Centre,"No. 2, Jalan Inti Sari Perdana, Desa Parkcity",Kuala Lumpur,Wp Kuala Lumpur,"W.P. Kuala Lumpur, W.P. Kuala Lumpur, Malaysia",Private,"Parkcity Medical Centre





, No. 2, Jalan Inti Sari Perdana, Desa Parkcity, W.P. Kuala Lumpur, W.P. Kuala Lumpur, Malaysia"
197,Pantai Hospital Kuala Lumpur,"No. 8, Jalan Bukit Pantai",Kuala Lumpur,Wp Kuala Lumpur,"W.P. Kuala Lumpur, W.P. Kuala Lumpur, Malaysia",Private,"Pantai Hospital Kuala Lumpur, No. 8, Jalan Bukit Pantai, W.P. Kuala Lumpur, W.P. Kuala Lumpur, Malaysia"
196,Pantai Hospital Cheras,"Level 33A, Mercu Aspire, No.3 Jalan Bangsar, Kl Eco City",Kuala Lumpur,Wp Kuala Lumpur,"W.P. Kuala Lumpur, W.P. Kuala Lumpur, Malaysia",Private,"Pantai Hospital Cheras, Level 33A, Mercu Aspire, No.3 Jalan Bangsar, Kl Eco City , W.P. Kuala Lumpur, W.P. Kuala Lumpur, Malaysia"
195,Pantai Hospital Ampang,"Jalan Perubatan 1, Pandan Indah",Kuala Lumpur,Wp Kuala Lumpur,"W.P. Kuala Lumpur, W.P. Kuala Lumpur, Malaysia",Private,"Pantai Hospital Ampang, Jalan Perubatan 1, Pandan Indah, W.P. Kuala Lumpur, W.P. Kuala Lumpur, Malaysia"
202,Pusat Pakar Ukm,"Tingkat 1, 2 Dan 7, Blok Klinikal & Tingkat Bawah Dan Tingkat 1 Blok Gamma Knife, Pusat Perubatan Ukm, Jalan Yaacob Latif, Bandar Tun Razak",Kuala Lumpur,Wp Kuala Lumpur,"W.P. Kuala Lumpur, W.P. Kuala Lumpur, Malaysia",Private,"Pusat Pakar Ukm, Tingkat 1, 2 Dan 7, Blok Klinikal & Tingkat Bawah Dan Tingkat 1 Blok Gamma Knife, Pusat Perubatan Ukm, Jalan Yaacob Latif, Bandar Tun Razak, W.P. Kuala Lumpur, W.P. Kuala Lumpur, Malaysia"
194,Kpj Sentosa Kl Specialist Hospital,"36, Jalan Chemur, Kompleks Damai",Kuala Lumpur,Wp Kuala Lumpur,"W.P. Kuala Lumpur, W.P. Kuala Lumpur, Malaysia",Private,"Kpj Sentosa Kl Specialist Hospital, 36, Jalan Chemur, Kompleks Damai, W.P. Kuala Lumpur, W.P. Kuala Lumpur, Malaysia"
172,Al-Islam Specialist Hospital,"No. 85, Jalan Raja Abdullah, Kampung Baru",Kuala Lumpur,Wp Kuala Lumpur,"W.P. Kuala Lumpur, W.P. Kuala Lumpur, Malaysia",Private,"Al-Islam Specialist Hospital, No. 85, Jalan Raja Abdullah, Kampung Baru, W.P. Kuala Lumpur, W.P. Kuala Lumpur, Malaysia"
180,Damai Service Hospital (Hq) Sdn Bhd,109-119 (1St Mile) Jalan Sultan Azlan Shah,Kuala Lumpur,Wp Kuala Lumpur,"W.P. Kuala Lumpur, W.P. Kuala Lumpur, Malaysia",Private,"Damai Service Hospital (Hq) Sdn Bhd, 109-119 (1St Mile) Jalan Sultan Azlan Shah, W.P. Kuala Lumpur, W.P. Kuala Lumpur, Malaysia"
187,Hospital Pakar Pusrawi Kuala Lumpur,"Lot 149, Jalan Tun Razak",Kuala Lumpur,Wp Kuala Lumpur,"W.P. Kuala Lumpur, W.P. Kuala Lumpur, Malaysia",Private,"Hospital Pakar Pusrawi Kuala Lumpur, Lot 149, Jalan Tun Razak, W.P. Kuala Lumpur, W.P. Kuala Lumpur, Malaysia"
185,Hospital Pakar Kpj Tawakkal Kl (Kpj Tawakkal Kl Specialist Hospital),No 1 Jalan Pahang Barat,Kuala Lumpur,Wp Kuala Lumpur,"W.P. Kuala Lumpur, W.P. Kuala Lumpur, Malaysia",Private,"Hospital Pakar Kpj Tawakkal Kl (Kpj Tawakkal Kl Specialist Hospital), No 1 Jalan Pahang Barat , W.P. Kuala Lumpur, W.P. Kuala Lumpur, Malaysia"
182,Global Doctors Hospital,"Level 2A, 3A & 4A, Kiara Designer Suite, No. 18, Jalan Kiara 3, Mont Kiara",Kuala Lumpur,Wp Kuala Lumpur,"W.P. Kuala Lumpur, W.P. Kuala Lumpur, Malaysia",Private,"Global Doctors Hospital, Level 2A, 3A & 4A, Kiara Designer Suite, No. 18, Jalan Kiara 3, Mont Kiara, W.P. Kuala Lumpur, W.P. Kuala Lumpur, Malaysia"
192,Klsmc Hospital,"47, Jalan Dungun, Damansara Heights",Kuala Lumpur,Wp Kuala Lumpur,"W.P. Kuala Lumpur, W.P. Kuala Lumpur, Malaysia",Private,"Klsmc Hospital, 47, Jalan Dungun, Damansara Heights, W.P. Kuala Lumpur, W.P. Kuala Lumpur, Malaysia"
184,Hospital Pakar Damansara 2,"No .1 Jalan Bukit Lanjan 3, Bukit Lanjan",Kuala Lumpur,Wp Kuala Lumpur,"W.P. Kuala Lumpur, W.P. Kuala Lumpur, Malaysia",Private,"Hospital Pakar Damansara 2, No .1 Jalan Bukit Lanjan 3, Bukit Lanjan, W.P. Kuala Lumpur, W.P. Kuala Lumpur, Malaysia"
179,Columbia Hospital,"No. 1, Jalan Danau Saujana, Off Jalan Genting Klang",Kuala Lumpur,Wp Kuala Lumpur,"W.P. Kuala Lumpur, W.P. Kuala Lumpur, Malaysia",Private,"Columbia Hospital, No. 1, Jalan Danau Saujana, Off Jalan Genting Klang, W.P. Kuala Lumpur, W.P. Kuala Lumpur, Malaysia"
176,Cengild G.I Medical Centre,"Unit 2-3 & 2-4, Nexus @ Bangsar South, No. 7, Jalan Kerinchi",Kuala Lumpur,Wp Kuala Lumpur,"W.P. Kuala Lumpur, W.P. Kuala Lumpur, Malaysia",Private,"Cengild G.I Medical Centre, Unit 2-3 & 2-4, Nexus @ Bangsar South, No. 7, Jalan Kerinchi, W.P. Kuala Lumpur, W.P. Kuala Lumpur, Malaysia"
175,Cardiac Vascular Sentral Kuala Lumpur,"Jalan Stesyen Sentral 5, Kuala Lumpur Sentral",Kuala Lumpur,Wp Kuala Lumpur,"W.P. Kuala Lumpur, W.P. Kuala Lumpur, Malaysia",Private,"Cardiac Vascular Sentral Kuala Lumpur, Jalan Stesyen Sentral 5, Kuala Lumpur Sentral, W.P. Kuala Lumpur, W.P. Kuala Lumpur, Malaysia"
189,Iheal Medical Centre Kuala Lumpur,"Level 7 & 8, Annexe Block, Menara Igb, Mid Valley City, Lingkaran Syed Putra",Kuala Lumpur,Wp Kuala Lumpur,"W.P. Kuala Lumpur, W.P. Kuala Lumpur, Malaysia",Private,"Iheal Medical Centre Kuala Lumpur, Level 7 & 8, Annexe Block, Menara Igb, Mid Valley City, Lingkaran Syed Putra, W.P. Kuala Lumpur, W.P. Kuala Lumpur, Malaysia"
190,Institut Jantung Negara,"145, Jalan Tun Razak",Kuala Lumpur,Wp Kuala Lumpur,"W.P. Kuala Lumpur, W.P. Kuala Lumpur, Malaysia",Private,"Institut Jantung Negara, 145, Jalan Tun Razak, W.P. Kuala Lumpur, W.P. Kuala Lumpur, Malaysia"
174,Beverly Wilshire Medical Centre,"Level 8 & 9, Kenanga Tower, No. 237, Jalan Tun Razak",Kuala Lumpur,Wp Kuala Lumpur,"W.P. Kuala Lumpur, W.P. Kuala Lumpur, Malaysia",Private,"Beverly Wilshire Medical Centre, Level 8 & 9, Kenanga Tower, No. 237, Jalan Tun Razak, W.P. Kuala Lumpur, W.P. Kuala Lumpur, Malaysia"
181,Gleneagles Hospital Kuala Lumpur,"282, 286 & 288, Block A, B & Medical Office Block (Ground Floor), Jalan Ampang",Kuala Lumpur,Wp Kuala Lumpur,"W.P. Kuala Lumpur, W.P. Kuala Lumpur, Malaysia",Private,"Gleneagles Hospital Kuala Lumpur, 282, 286 & 288, Block A, B & Medical Office Block (Ground Floor), Jalan Ampang, W.P. Kuala Lumpur, W.P. Kuala Lumpur, Malaysia"
191,Klinik Pakar Wanita Kepong Dan Pusat Bersalin,"17, Jalan Metro Perdana Timur Satu, Taman Usahawan Kepong",Kuala Lumpur,Wp Kuala Lumpur,"W.P. Kuala Lumpur, W.P. Kuala Lumpur, Malaysia",Private,"Klinik Pakar Wanita Kepong Dan Pusat Bersalin, 17, Jalan Metro Perdana Timur Satu, Taman Usahawan Kepong, W.P. Kuala Lumpur, W.P. Kuala Lumpur, Malaysia"
207,Hospital Columbia Asia,"No. 9, Jalan Jalil Perkasa 7, Bukit Jalil",Kuala Lumpur,Wp Kuala Lumpur,"W.P. Kuala Lumpur, W.P. Kuala Lumpur, Malaysia",Private,"Hospital Columbia Asia, No. 9, Jalan Jalil Perkasa 7, Bukit Jalil, W.P. Kuala Lumpur, W.P. Kuala Lumpur, Malaysia"
173,Alty Orthopaedic Hospital,"Level Ground, Level 1 Hingga 4, 5-1, 6-1, 7-1 & 8-1, Menara Alty, No 187, Jalan Ampang",Kuala Lumpur,Wp Kuala Lumpur,"W.P. Kuala Lumpur, W.P. Kuala Lumpur, Malaysia",Private,"Alty Orthopaedic Hospital, Level Ground, Level 1 Hingga 4, 5-1, 6-1, 7-1 & 8-1, Menara Alty, No 187, Jalan Ampang, W.P. Kuala Lumpur, W.P. Kuala Lumpur, Malaysia"
177,Chaudhury Medical Centre,"No 15, Jalan 5/65C, Off Jalan Pahang Barat, Pekeliling Business Centre",Kuala Lumpur,Wp Kuala Lumpur,"W.P. Kuala Lumpur, W.P. Kuala Lumpur, Malaysia",Private,"Chaudhury Medical Centre, No 15, Jalan 5/65C, Off Jalan Pahang Barat, Pekeliling Business Centre, W.P. Kuala Lumpur, W.P. Kuala Lumpur, Malaysia"
183,Hospital Kiara Medical Centre,"No. 244, Jalan Ipoh",Kuala Lumpur,Wp Kuala Lumpur,"W.P. Kuala Lumpur, W.P. Kuala Lumpur, Malaysia",Private,"Hospital Kiara Medical Centre, No. 244, Jalan Ipoh, W.P. Kuala Lumpur, W.P. Kuala Lumpur, Malaysia"
186,Hospital Pakar Wanita Sarmukh,"167, Jalan Genting Kelang, Setapak",Kuala Lumpur,Wp Kuala Lumpur,"W.P. Kuala Lumpur, W.P. Kuala Lumpur, Malaysia",Private,"Hospital Pakar Wanita Sarmukh, 167, Jalan Genting Kelang, Setapak, W.P. Kuala Lumpur, W.P. Kuala Lumpur, Malaysia"
47,Hospital Kuala Nerang,Kuala Nerang,Kuala Nerang,Kedah,"Kuala Nerang, Kedah, Malaysia",Public,"Hospital Kuala Nerang, Kuala Nerang, Kuala Nerang, Kedah, Malaysia"
48,Hospital Kuala Penyu,W.D.T. 35,Kuala Penyu,Sabah,"Kuala Penyu, Sabah, Malaysia",Public,"Hospital Kuala Penyu, W.D.T. 35, Kuala Penyu, Sabah, Malaysia"
134,Hospital Tuanku Ampuan Najihah,KM 3 Jalan Melang,Kuala Pilah,Negeri Sembilan,"Kuala Pilah, Negeri Sembilan, Malaysia",Public,"Hospital Tuanku Ampuan Najihah, KM 3 Jalan Melang, Kuala Pilah, Negeri Sembilan, Malaysia"
115,Hospital Sultanah Nur Zahirah,"Jalan Sultan Mahmud, Kuala Terengganu",Kuala Terengganu,Terengganu,"Kuala Terengganu, Terengganu, Malaysia",Public,"Hospital Sultanah Nur Zahirah, Jalan Sultan Mahmud, Kuala Terengganu, Kuala Terengganu, Terengganu, Malaysia"
151,"Salam Specialist Hospital, Kuala Terengganu","Lot 4075, Jalan Engku Sar",Kuala Terengganu,Terengganu,"Kuala Terengganu, Terengganu, Malaysia",Private,"Salam Specialist Hospital, Kuala Terengganu, Lot 4075, Jalan Engku Sar, Kuala Terengganu, Terengganu, Malaysia"
150,Kmi Kuala Terengganu Medical Centre,"Lot 3963, Kampung Batu Buruk Jalan Sultan Mahmud, Mukim Batu Buruk",Kuala Terengganu,Terengganu,"Kuala Terengganu, Terengganu, Malaysia",Private,"Kmi Kuala Terengganu Medical Centre, Lot 3963, Kampung Batu Buruk Jalan Sultan Mahmud, Mukim Batu Buruk, Kuala Terengganu, Terengganu, Malaysia"
129,Hospital Tengku Ampuan Afzan,Jalan Air Putih,Kuantan,Pahang,"Kuantan, Pahang, Malaysia",Public,"Hospital Tengku Ampuan Afzan, Jalan Air Putih, Kuantan, Pahang, Malaysia"
52,Kpj Pahang Specialist Hospital,"Lot 105703 (Pt 83065), Tanjung Lumpur",Kuantan,Pahang,"Kuantan, Pahang, Malaysia",Private,"Kpj Pahang Specialist Hospital, Lot 105703 (Pt 83065), Tanjung Lumpur, Kuantan, Pahang, Malaysia"
53,Aurelius Hospital Pahang,"Lot 1, 3, 5 & 7 Wisma Muip, Jalan Gambut",Kuantan,Pahang,"Kuantan, Pahang, Malaysia",Private,"Aurelius Hospital Pahang, Lot 1, 3, 5 & 7 Wisma Muip, Jalan Gambut, Kuantan, Pahang, Malaysia"
50,Darul Makmur Medical Centre Sdn. Bhd.,"B2-B60, Jalan Pinggiran Putra 4/3, Pinggiran Putra 4",Kuantan,Pahang,"Kuantan, Pahang, Malaysia",Private,"Darul Makmur Medical Centre Sdn. Bhd., B2-B60, Jalan Pinggiran Putra 4/3, Pinggiran Putra 4, Kuantan, Pahang, Malaysia"
51,Kmi Kuantan Medical Centre,"Jalan Tun Razak, Bandar Indera Mahkota",Kuantan,Pahang,"Kuantan, Pahang, Malaysia",Private,"Kmi Kuantan Medical Centre, Jalan Tun Razak, Bandar Indera Mahkota, Kuantan, Pahang, Malaysia"
54,Iium Medical Specialist Centre (Imsc),"Kulliyyah Of Medicine, International Islamic University Malaysia, Indera Mahkota",Kuantan,Pahang,"Kuantan, Pahang, Malaysia",Private,"Iium Medical Specialist Centre (Imsc), Kulliyyah Of Medicine, International Islamic University Malaysia, Indera Mahkota, Kuantan, Pahang, Malaysia"
95,Hospital Sentosa,"Batu 7, Jalan Penenrisen",Kuching,Sarawak,"Kuching, Sarawak, Malaysia",Public,"Hospital Sentosa, Batu 7, Jalan Penenrisen, Kuching, Sarawak, Malaysia"
168,Normah Medical Specialist Centre,"Lot 937, Section 30, Ktld, Jalan Tun Abdul Rahman Yakub, Petra Jaya",Kuching,Sarawak,"Kuching, Sarawak, Malaysia",Private,"Normah Medical Specialist Centre, Lot 937, Section 30, Ktld, Jalan Tun Abdul Rahman Yakub, Petra Jaya, Kuching, Sarawak, Malaysia"
83,Hospital Rajah Charles Brooke Memorial,"Bt 13, Jalan Puncak Borneo, Kota Padawan",Kuching,Sarawak,"Kuching, Sarawak, Malaysia",Public,"Hospital Rajah Charles Brooke Memorial, Bt 13, Jalan Puncak Borneo, Kota Padawan, Kuching, Sarawak, Malaysia"
160,Borneo Medical Centre,"Lot 10992, Section 64, Kuching Town Land District, Jalan Tun Jugah",Kuching,Sarawak,"Kuching, Sarawak, Malaysia",Private,"Borneo Medical Centre, Lot 10992, Section 64, Kuching Town Land District, Jalan Tun Jugah, Kuching, Sarawak, Malaysia"
140,Hospital Umum Sarawak,Jalan Hospital,Kuching,Sarawak,"Kuching, Sarawak, Malaysia",Public,"Hospital Umum Sarawak, Jalan Hospital, Kuching, Sarawak, Malaysia"
164,Helen Ngu Women Hospital,"Tingkat 1, No. 251, Lot 2579, Central Park Commercial Centre, 3Rd Mile",Kuching,Sarawak,"Kuching, Sarawak, Malaysia",Private,"Helen Ngu Women Hospital, Tingkat 1, No. 251, Lot 2579, Central Park Commercial Centre, 3Rd Mile, Kuching, Sarawak, Malaysia"
165,Kpj Kuching Specialist Hospital,"Lot 18807, Block 11, Muara Tebas Land District",Kuching,Sarawak,"Kuching, Sarawak, Malaysia",Private,"Kpj Kuching Specialist Hospital, Lot 18807, Block 11, Muara Tebas Land District, Kuching, Sarawak, Malaysia"
171,Timberland Medical Centre,"Lot 5160-5169 & 7477-7486, Block 16, Kcld, 2½Mile, Jalan Rock",Kuching,Sarawak,"Kuching, Sarawak, Malaysia",Private,"Timberland Medical Centre, Lot 5160-5169 & 7477-7486, Block 16, Kcld, 2½Mile, Jalan Rock, Kuching, Sarawak, Malaysia"
49,Hospital Kudat,Peti Surat 22,Kudat,Sabah,"Kudat, Sabah, Malaysia",Public,"Hospital Kudat, Peti Surat 22, Kudat, Sabah, Malaysia"
128,Hospital Temenggong Seri Maharaja Tun Ibrahim,"Hospital Temenggong Seri Maharaja Tun Ibrahim, 81000 Kulai",Kulaijaya,Johor,"Kulaijaya, Johor, Malaysia",Public,"Hospital Temenggong Seri Maharaja Tun Ibrahim, Hospital Temenggong Seri Maharaja Tun Ibrahim, 81000 Kulai, Kulaijaya, Johor, Malaysia"
50,Hospital Kulim,"Jalan Mahang, Kulim",Kulim,Kedah,"Kulim, Kedah, Malaysia",Public,"Hospital Kulim, Jalan Mahang, Kulim, Kulim, Kedah, Malaysia"
51,Hospital Kunak,W.D.T. 150,Kunak,Sabah,"Kunak, Sabah, Malaysia",Public,"Hospital Kunak, W.D.T. 150, Kunak, Sabah, Malaysia"
53,Hospital Lahad Datu,Peti Surat 60065,Lahad Datu,Sabah,"Lahad Datu, Sabah, Malaysia",Public,"Hospital Lahad Datu, Peti Surat 60065, Lahad Datu, Sabah, Malaysia"
54,Hospital Langkawi,"Bukit Tekuh,Jalan Padang Maksirat",Langkawi,Kedah,"Langkawi, Kedah, Malaysia",Public,"Hospital Langkawi, Bukit Tekuh,Jalan Padang Maksirat, Langkawi, Kedah, Malaysia"
55,Hospital Lawas,Jalan Hospital,Lawas,Sarawak,"Lawas, Sarawak, Malaysia",Public,"Hospital Lawas, Jalan Hospital, Lawas, Sarawak, Malaysia"
56,Hospital Limbang,Jalan Pandaruan,Limbang,Sarawak,"Limbang, Sarawak, Malaysia",Public,"Hospital Limbang, Jalan Pandaruan, Limbang, Sarawak, Malaysia"
83,Klinik Bersalin Yasmin,"No. 27 - 28, Persiaran Venice Sutera 1, Desa Manjung Raya",Lumut,Perak,"Lumut, Perak, Malaysia",Private,"Klinik Bersalin Yasmin, No. 27 - 28, Persiaran Venice Sutera 1, Desa Manjung Raya, Lumut, Perak, Malaysia"
57,Hospital Lundu,Jalan Sekambal,Lundu,Sarawak,"Lundu, Sarawak, Malaysia",Public,"Hospital Lundu, Jalan Sekambal, Lundu, Sarawak, Malaysia"
58,Hospital Machang,Jalan Pasir Puteh,Machang,Kelantan,"Machang, Kelantan, Malaysia",Public,"Hospital Machang, Jalan Pasir Puteh, Machang, Kelantan, Malaysia"
29,Hospital Jengka,26400 Bandar Jengka,Maran,Pahang,"Maran, Pahang, Malaysia",Public,"Hospital Jengka, 26400 Bandar Jengka, Maran, Pahang, Malaysia"
59,Hospital Marudi,Jalan Pungor,Marudi,Sarawak,"Marudi, Sarawak, Malaysia",Public,"Hospital Marudi, Jalan Pungor, Marudi, Sarawak, Malaysia"
24,Regency Specialist Hospital,"No. 1, Jalan Suria, Bandar Seri Alam",Masai,Johor,"Masai, Johor, Malaysia",Private,"Regency Specialist Hospital, No. 1, Jalan Suria, Bandar Seri Alam, Masai, Johor, Malaysia"
61,Hospital Mersing,Jalan Ismail,Mersing,Johor,"Mersing, Johor, Malaysia",Public,"Hospital Mersing, Jalan Ismail, Mersing, Johor, Malaysia"
163,Columbi Asia Hospital-Miri,"Lot 1035-1039, 1St Floor & 2Nd Floor Lot 1040 Dan Lot 1041-1042, Jalan Bulan Sabit",Miri,Sarawak,"Miri, Sarawak, Malaysia",Private,"Columbi Asia Hospital-Miri, Lot 1035-1039, 1St Floor & 2Nd Floor Lot 1040 Dan Lot 1041-1042, Jalan Bulan Sabit, Miri, Sarawak, Malaysia"
63,Hospital Miri,Jalan Cahaya,Miri,Sarawak,"Miri, Sarawak, Malaysia",Public,"Hospital Miri, Jalan Cahaya, Miri, Sarawak, Malaysia"
166,Kpj Miri Specialist Hospital,"Lot 8836 (Part Of Lot 6183 And 6186), Block 11, Kuala Baram Land District, Off Tudan Kuala Baram Link Road, Bandar Baru Permy Jaya",Miri,Sarawak,"Miri, Sarawak, Malaysia",Private,"Kpj Miri Specialist Hospital, Lot 8836 (Part Of Lot 6183 And 6186), Block 11, Kuala Baram Land District, Off Tudan Kuala Baram Link Road, Bandar Baru Permy Jaya, Miri, Sarawak, Malaysia"
167,Miri City Medical Centre,"Lot 916-920 & 1202-1203, Jalan Hokkien",Miri,Sarawak,"Miri, Sarawak, Malaysia",Private,"Miri City Medical Centre, Lot 916-920 & 1202-1203, Jalan Hokkien, Miri, Sarawak, Malaysia"
161,Borneo Medical Centre (Miri),"Lot 1959, Block 10, Mcld, Jalan Cahaya, Off Jalan Miri-Bintulu",Miri,Sarawak,"Miri, Sarawak, Malaysia",Private,"Borneo Medical Centre (Miri), Lot 1959, Block 10, Mcld, Jalan Cahaya, Off Jalan Miri-Bintulu, Miri, Sarawak, Malaysia"
67,Hospital Pakar Sultanah Fatimah,Jalan Salleh,Muar,Johor,"Muar, Johor, Malaysia",Public,"Hospital Pakar Sultanah Fatimah, Jalan Salleh, Muar, Johor, Malaysia"
21,"Pusat Pakar Perbidanan, Sakit Puan Dan Kanak- Kanak","No. 21, Jalan Sulaiman",Muar,Johor,"Muar, Johor, Malaysia",Private,"Pusat Pakar Perbidanan, Sakit Puan Dan Kanak- Kanak, No. 21, Jalan Sulaiman, Muar, Johor, Malaysia"
11,Kpj Bandar Maharani Specialist Hospital,"No. 73-1, Jalan Stadium",Muar,Johor,"Muar, Johor, Malaysia",Private,"Kpj Bandar Maharani Specialist Hospital, No. 73-1, Jalan Stadium, Muar, Johor, Malaysia"
65,Hospital Mukah,Jalan Haji Mohamed Pauzi,Mukah,Sarawak,"Mukah, Sarawak, Malaysia",Public,"Hospital Mukah, Jalan Haji Mohamed Pauzi, Mukah, Sarawak, Malaysia"
43,Aurelius Hospital Negeri Sembilan,"Pt 13717, Jalan Bbn 2/1",Nilai,Negeri Sembilan,"Nilai , Negeri Sembilan, Malaysia",Private,"Aurelius Hospital Negeri Sembilan, Pt 13717, Jalan Bbn 2/1, Nilai , Negeri Sembilan, Malaysia"
68,Hospital Papar,"Peti Surat No. 6,",Papar,Sabah,"Papar, Sabah, Malaysia",Public,"Hospital Papar, Peti Surat No. 6,, Papar, Sabah, Malaysia"
69,Hospital Parit Buntar,Jalan Sempadan,Parit Buntar,Perak,"Parit Buntar, Perak, Malaysia",Public,"Hospital Parit Buntar, Jalan Sempadan, Parit Buntar, Perak, Malaysia"
18,Pasir Gudang Specialist Hospital,"Lot Ptd 204781, Jalan Persiaran Dahlia 2, Taman Bukit Dahlia",Pasir Gudang,Johor,"Pasir Gudang, Johor, Malaysia",Private,"Pasir Gudang Specialist Hospital, Lot Ptd 204781, Jalan Persiaran Dahlia 2, Taman Bukit Dahlia, Pasir Gudang, Johor, Malaysia"
6,Hospital Penawar,"No. 17 & 18 (A-D), Pusat Perniagaan Pasir Gudang",Pasir Gudang,Johor,"Pasir Gudang, Johor, Malaysia",Private,"Hospital Penawar, No. 17 & 18 (A-D), Pusat Perniagaan Pasir Gudang, Pasir Gudang, Johor, Malaysia"
70,Hospital Pasir Mas,Jalan Meranti,Pasir Mas,Kelantan,"Pasir Mas, Kelantan, Malaysia",Public,"Hospital Pasir Mas, Jalan Meranti, Pasir Mas, Kelantan, Malaysia"
132,Hospital Tengku Anis,Jalan Pasir Puteh,Pasir Puteh,Kelantan,"Pasir Puteh, Kelantan, Malaysia",Public,"Hospital Tengku Anis, Jalan Pasir Puteh, Pasir Puteh, Kelantan, Malaysia"
71,Hospital Pekan,26600 Pekan,Pekan,Pahang,"Pekan, Pahang, Malaysia",Public,"Hospital Pekan, 26600 Pekan, Pekan, Pahang, Malaysia"
72,Hospital Pendang,"Kampung Manggol Pauh, 06700 Pendang, Kedah",Pendang,Kedah,"Pendang, Kedah, Malaysia",Public,"Hospital Pendang, Kampung Manggol Pauh, 06700 Pendang, Kedah, Pendang, Kedah, Malaysia"
70,Sunway Medical Centre Penang,"3106, Lebuh Tenggiri 2, Pusat Bandar Seberang Jaya",Perai,Pulau Pinang,"Perai, Pulau Pinang, Malaysia",Private,"Sunway Medical Centre Penang, 3106, Lebuh Tenggiri 2, Pusat Bandar Seberang Jaya, Perai, Pulau Pinang, Malaysia"
90,Hospital Seberang Jaya,"Jln Tun Hussein Onn, Perai",Perai,Pulau Pinang,"Perai, Pulau Pinang, Malaysia",Public,"Hospital Seberang Jaya, Jln Tun Hussein Onn, Perai, Perai, Pulau Pinang, Malaysia"
69,Questra Bio - Clinical Research Centre,"Aras Bawah (No.6) Dan Aras 1&2 ( No.2A,No.6 Dan No.8) Jalan Desa Pauh",Permatang Pauh,Pulau Pinang,"Permatang Pauh, Pulau Pinang, Malaysia",Private,"Questra Bio - Clinical Research Centre, Aras Bawah (No.6) Dan Aras 1&2 ( No.2A,No.6 Dan No.8) Jalan Desa Pauh, Permatang Pauh, Pulau Pinang, Malaysia"
74,Hospital Pitas,Peti Surat 88,Pitas,Sabah,"Pitas, Sabah, Malaysia",Public,"Hospital Pitas, Peti Surat 88, Pitas, Sabah, Malaysia"
75,Hospital Pontian,Jalan Alsagoff,Pontian,Johor,"Pontian, Johor, Malaysia",Public,"Hospital Pontian, Jalan Alsagoff, Pontian, Johor, Malaysia"
49,Ucsi Hospital,"No 2, Avenue 3, Persiaran Springhill",Port Dickson,Negeri Sembilan,"Port Dickson, Negeri Sembilan, Malaysia",Private,"Ucsi Hospital, No 2, Avenue 3, Persiaran Springhill, Port Dickson, Negeri Sembilan, Malaysia"
76,Hospital Port Dickson,"KM 11, Jalan Pantai",Port Dickson,Negeri Sembilan,"Port Dickson, Negeri Sembilan, Malaysia",Public,"Hospital Port Dickson, KM 11, Jalan Pantai, Port Dickson, Negeri Sembilan, Malaysia"
77,Hospital Pulau Pinang,Jalan Residensi,Pulau Pinang,Pulau Pinang,"Pulau Pinang, Pulau Pinang, Malaysia",Public,"Hospital Pulau Pinang, Jalan Residensi, Pulau Pinang, Pulau Pinang, Malaysia"
68,Penang Adventist Hospital,"465, Jalan Burma",Pulau Pinang,Pulau Pinang,"Pulau Pinang, Pulau Pinang, Malaysia",Private,"Penang Adventist Hospital, 465, Jalan Burma, Pulau Pinang, Pulau Pinang, Malaysia"
59,"Hospital Kebajikan Kek Lok Si 
Kek Lok Si Charitable Hospital","No. 623, Jalan Balik Pulau, Ayer Itam",Pulau Pinang,Pulau Pinang,"Pulau Pinang, Pulau Pinang, Malaysia",Private,"Hospital Kebajikan Kek Lok Si 
Kek Lok Si Charitable Hospital, No. 623, Jalan Balik Pulau, Ayer Itam, Pulau Pinang, Pulau Pinang, Malaysia"
208,Hospital Azalea Putrajaya,"B1-Lg-2, B1-Lg-3, B1-G-2, B-1-G-3, B1-1-2 & B1-1-3, Ayer@8, Jalan P8G, Presint 8",Putrajaya,Wp Putrajaya,"W.P Putrajaya, W.P Putrajaya, Malaysia",Private,"Hospital Azalea Putrajaya, B1-Lg-2, B1-Lg-3, B1-G-2, B-1-G-3, B1-1-2 & B1-1-3, Ayer@8, Jalan P8G, Presint 8, W.P Putrajaya, W.P Putrajaya, Malaysia"
210,Stella Kasih Medical Centre,"Lot 192, Blok B, Jalan P8C/1, Pusat Perniagaan Presint 8",Putrajaya,Wp Putrajaya,"W.P Putrajaya, W.P Putrajaya, Malaysia",Private,"Stella Kasih Medical Centre, Lot 192, Blok B, Jalan P8C/1, Pusat Perniagaan Presint 8, W.P Putrajaya, W.P Putrajaya, Malaysia"
84,Hospital Ranau,Peti Surat 65,Ranau,Sabah,"Ranau, Sabah, Malaysia",Public,"Hospital Ranau, Peti Surat 65, Ranau, Sabah, Malaysia"
85,Hospital Raub,Jalan Tengku Abd Samad,Raub,Pahang,"Raub, Pahang, Malaysia",Public,"Hospital Raub, Jalan Tengku Abd Samad, Raub, Pahang, Malaysia"
87,Hospital Rompin,"Jalan Kg Kolam Kuala Rompin
26800 Rompin
Pahang",Rompin,Pahang,"Rompin, Pahang, Malaysia",Public,"Hospital Rompin, Jalan Kg Kolam Kuala Rompin
26800 Rompin
Pahang, Rompin, Pahang, Malaysia"
64,Hospital Muadzam Shah,26700 Muadzam Shah,Rompin,Pahang,"Rompin, Pahang, Malaysia",Public,"Hospital Muadzam Shah, 26700 Muadzam Shah, Rompin, Pahang, Malaysia"
145,Pusat Jantung Sarawak,"Jalan Expressway Kota Samarahan
94300 Samarahan
Sarawak",Samarahan,Sarawak,"Samarahan, Sarawak, Malaysia",Public,"Pusat Jantung Sarawak, Jalan Expressway Kota Samarahan
94300 Samarahan
Sarawak, Samarahan, Sarawak, Malaysia"
158,Utama Medical Centre,"Lot 16 – 20, Blok B1, Utama Place, Phase 5, Batu  6, Jalan Utara",Sandakan,Sabah,"Sandakan, Sabah, Malaysia",Private,"Utama Medical Centre, Lot 16 – 20, Blok B1, Utama Place, Phase 5, Batu  6, Jalan Utara, Sandakan, Sabah, Malaysia"
19,Hospital Duchess Of Kent,"KM 3.2, Jalan Utara",Sandakan,Sabah,"Sandakan, Sabah, Malaysia",Public,"Hospital Duchess Of Kent, KM 3.2, Jalan Utara, Sandakan, Sabah, Malaysia"
88,Hospital Saratok,"KM 1, Jalan Saratok",Saratok,Sarawak,"Saratok, Sarawak, Malaysia",Public,"Hospital Saratok, KM 1, Jalan Saratok, Saratok, Sarawak, Malaysia"
89,Hospital Sarikei,Jalan Rentap,Sarikei,Sarawak,"Sarikei, Sarawak, Malaysia",Public,"Hospital Sarikei, Jalan Rentap, Sarikei, Sarawak, Malaysia"
71,Dbm Hospital,"No 18 & 20, Jalan Cermai 1, Taman Cermai, Jalan Sama Gagah, Permatang Pauh",Seberang Perai,Pulau Pinang,"Seberang Perai, Pulau Pinang, Malaysia",Private,"Dbm Hospital, No 18 & 20, Jalan Cermai 1, Taman Cermai, Jalan Sama Gagah, Permatang Pauh, Seberang Perai, Pulau Pinang, Malaysia"
91,Hospital Segamat,"KM 6 Jalan Genuang,",Segamat,Johor,"Segamat, Johor, Malaysia",Public,"Hospital Segamat, KM 6 Jalan Genuang,, Segamat, Johor, Malaysia"
92,Hospital Selama,Jalan Taiping,Selama,Perak,"Selama, Perak, Malaysia",Public,"Hospital Selama, Jalan Taiping, Selama, Perak, Malaysia"
94,Hospital Semporna,Peti Surat 80,Semporna,Sabah,"Semporna, Sabah, Malaysia",Public,"Hospital Semporna, Peti Surat 80, Semporna, Sabah, Malaysia"
48,Salam Senawang Specialist Hospital,"No. 234-243, Jalan Lavender Heights 2, Lavender Business Square",Senawang,Negeri Sembilan,"Senawang, Negeri Sembilan, Malaysia",Private,"Salam Senawang Specialist Hospital, No. 234-243, Jalan Lavender Heights 2, Lavender Business Square, Senawang, Negeri Sembilan, Malaysia"
136,Hospital Tuanku Ja'afar Seremban,Jalan Rasah,Seremban,Negeri Sembilan,"Seremban, Negeri Sembilan, Malaysia",Public,"Hospital Tuanku Ja'afar Seremban, Jalan Rasah, Seremban, Negeri Sembilan, Malaysia"
46,Kpj Seremban Specialist Hospital,"Lot 6219 & 6220, Jalan Toman 1, Kemayan Square",Seremban,Negeri Sembilan,"Seremban, Negeri Sembilan, Malaysia",Private,"Kpj Seremban Specialist Hospital, Lot 6219 & 6220, Jalan Toman 1, Kemayan Square, Seremban, Negeri Sembilan, Malaysia"
44,Cmh Specialist Hospital,"Block A (Ground Floor) & Block B , Lot 3900, Jalan Tun Dr. Ismail",Seremban,Negeri Sembilan,"Seremban, Negeri Sembilan, Malaysia",Private,"Cmh Specialist Hospital, Block A (Ground Floor) & Block B , Lot 3900, Jalan Tun Dr. Ismail, Seremban, Negeri Sembilan, Malaysia"
45,Columbia Asia Hospital – Seremban,"292 & Lot Pt 1904, Jalan Haruan 2, Oakland Commercial Centre",Seremban,Negeri Sembilan,"Seremban, Negeri Sembilan, Malaysia",Private,"Columbia Asia Hospital – Seremban, 292 & Lot Pt 1904, Jalan Haruan 2, Oakland Commercial Centre, Seremban, Negeri Sembilan, Malaysia"
47,Mawar Medical Centre,"No. 71, Jalan Rasah",Seremban,Negeri Sembilan,"Seremban, Negeri Sembilan, Malaysia",Private,"Mawar Medical Centre, No. 71, Jalan Rasah, Seremban, Negeri Sembilan, Malaysia"
97,Hospital Seri Manjung,Seri Manjung,Seri Manjung,Perak,"Seri Manjung, Perak, Malaysia",Public,"Hospital Seri Manjung, Seri Manjung, Seri Manjung, Perak, Malaysia"
88,Pantai Hospital Manjung,"Jalan Ppmp 1, Pusat Perniagaan Manjung Point",Seri Manjung,Perak,"Seri Manjung, Perak, Malaysia",Private,"Pantai Hospital Manjung, Jalan Ppmp 1, Pusat Perniagaan Manjung Point, Seri Manjung, Perak, Malaysia"
98,Hospital Serian,94700 Serian,Serian,Sarawak,"Serian, Sarawak, Malaysia",Public,"Hospital Serian, 94700 Serian, Serian, Sarawak, Malaysia"
91,Sejati Maternity & Specialist Centre,"No. 20, Taman Sejati 1",Setiawan,Perak,"Setiawan, Perak, Malaysia",Private,"Sejati Maternity & Specialist Centre, No. 20, Taman Sejati 1, Setiawan, Perak, Malaysia"
99,Hospital Setiu,Bandar Permaisuri,Setiu,Terengganu,"Setiu, Terengganu, Malaysia",Public,"Hospital Setiu, Bandar Permaisuri, Setiu, Terengganu, Malaysia"
101,Hospital Sibu,"Batu 5 ½,  Jalan Ulu Oya",Sibu,Sarawak,"Sibu, Sarawak, Malaysia",Public,"Hospital Sibu, Batu 5 ½,  Jalan Ulu Oya, Sibu, Sarawak, Malaysia"
170,Sibu Specialist Medical Centre,"No. 52A-G, Brooke Drive",Sibu,Sarawak,"Sibu, Sarawak, Malaysia",Private,"Sibu Specialist Medical Centre, No. 52A-G, Brooke Drive, Sibu, Sarawak, Malaysia"
169,Rejang Medical Centre,"Ground Floor, No. 27, 29 & 31, 1St, 2Nd & 3Rd Floor, No. 21, 23, 25, 27, 29, 31, 33, 35& 37, Jalan Dr. Wong Soon Kai (Jalan Pedada)",Sibu,Sarawak,"Sibu, Sarawak, Malaysia",Private,"Rejang Medical Centre, Ground Floor, No. 27, 29 & 31, 1St, 2Nd & 3Rd Floor, No. 21, 23, 25, 27, 29, 31, 33, 35& 37, Jalan Dr. Wong Soon Kai (Jalan Pedada), Sibu, Sarawak, Malaysia"
102,Hospital Sik,08200 Sik,Sik,Kedah,"Sik, Kedah, Malaysia",Public,"Hospital Sik, 08200 Sik, Sik, Kedah, Malaysia"
103,Hospital Simunjan,Jalan Gunung Ngeli,Simunjan,Sarawak,"Simunjan, Sarawak, Malaysia",Public,"Hospital Simunjan, Jalan Gunung Ngeli, Simunjan, Sarawak, Malaysia"
104,Hospital Sipitang,Peti Surat 250,Sipitang,Sabah,"Sipitang, Sabah, Malaysia",Public,"Hospital Sipitang, Peti Surat 250, Sipitang, Sabah, Malaysia"
86,Kpj Sri Manjung Specialist Hospital,"Lot 14777, Jalan Lumut",Sitiawan,Perak,"Sitiawan, Perak, Malaysia",Private,"Kpj Sri Manjung Specialist Hospital, Lot 14777, Jalan Lumut, Sitiawan, Perak, Malaysia"
20,Pusat Pakar Perbidanan Dan Wanita Perdana,"No. 51 & 52, Jalan Pendidikan 3, Taman Universiti",Skudai,Johor,"Skudai, Johor, Malaysia",Private,"Pusat Pakar Perbidanan Dan Wanita Perdana, No. 51 & 52, Jalan Pendidikan 3, Taman Universiti, Skudai, Johor, Malaysia"
22,Pusat Pakar Sakit Puan Dan Perbidanan Khor & Loh Sdn. Bhd,"No 145, 147 & 149-02, Jalan Bestari 1/5, Taman Nusa Bestari",Skudai,Johor,"Skudai, Johor, Malaysia",Private,"Pusat Pakar Sakit Puan Dan Perbidanan Khor & Loh Sdn. Bhd, No 145, 147 & 149-02, Jalan Bestari 1/5, Taman Nusa Bestari, Skudai, Johor, Malaysia"
105,Hospital Slim River,,Slim River,Perak,"Slim River, Perak, Malaysia",Public,"Hospital Slim River, , Slim River, Perak, Malaysia"
106,Hospital Sri Aman,Jalan Hospital,Sri Aman,Sarawak,"Sri Aman, Sarawak, Malaysia",Public,"Hospital Sri Aman, Jalan Hospital, Sri Aman, Sarawak, Malaysia"
116,Hospital Sungai Bakap,"Sungai Jawi, Seberang Perai Selatan",Sungai Jawi,Pulau Pinang,"Sungai Jawi, Pulau Pinang, Malaysia",Public,"Hospital Sungai Bakap, Sungai Jawi, Seberang Perai Selatan, Sungai Jawi, Pulau Pinang, Malaysia"
32,Pantai Hospital Sungai Petani,"No. 1, Persiaran Cempaka, Bandar Amanjaya",Sungai Petani,Kedah,"Sungai Petani, Kedah, Malaysia",Private,"Pantai Hospital Sungai Petani, No. 1, Persiaran Cempaka, Bandar Amanjaya, Sungai Petani, Kedah, Malaysia"
107,Hospital Sultan Abdul Halim,"Jalan Lencongan Timur Bandar Amanjaya, Sungai Petani",Sungai Petani,Kedah,"Sungai Petani, Kedah, Malaysia",Public,"Hospital Sultan Abdul Halim, Jalan Lencongan Timur Bandar Amanjaya, Sungai Petani, Sungai Petani, Kedah, Malaysia"
30,Metro Specialist Hospital,"No 1, Lorong Metro",Sungai Petani,Kedah,"Sungai Petani, Kedah, Malaysia",Private,"Metro Specialist Hospital, No 1, Lorong Metro, Sungai Petani, Kedah, Malaysia"
34,Puteri Ayu Maternity Centre,"10, Lorong 17, Taman Petani Jaya",Sungai Petani,Kedah,"Sungai Petani, Kedah, Malaysia",Private,"Puteri Ayu Maternity Centre, 10, Lorong 17, Taman Petani Jaya, Sungai Petani, Kedah, Malaysia"
31,Pantai Hospital Laguna Merbok,"1, Lorong Blm 1/10, Bandar Laguna Merbok",Sungai Petani,Kedah,"Sungai Petani, Kedah, Malaysia",Private,"Pantai Hospital Laguna Merbok, 1, Lorong Blm 1/10, Bandar Laguna Merbok, Sungai Petani, Kedah, Malaysia"
118,Hospital Sungai Siput,Jalan Felda Lasah,Sungai Siput,Perak,"Sungai Siput, Perak, Malaysia",Public,"Hospital Sungai Siput, Jalan Felda Lasah, Sungai Siput, Perak, Malaysia"
92,Taiping Medical Centre,"45-49, Jalan Medan Taiping 2",Taiping,Perak,"Taiping, Perak, Malaysia",Private,"Taiping Medical Centre, 45-49, Jalan Medan Taiping 2, Taiping, Perak, Malaysia"
119,Hospital Taiping,Jalan Taming Sari,Taiping,Perak,"Taiping, Perak, Malaysia",Public,"Hospital Taiping, Jalan Taming Sari, Taiping, Perak, Malaysia"
75,Apollo Medical Centre,"No. 271, Jalan Taming Sari",Taiping,Perak,"Taiping, Perak, Malaysia",Private,"Apollo Medical Centre, No. 271, Jalan Taming Sari, Taiping, Perak, Malaysia"
77,Columbia Asia Hospital – Taiping,"No. 5, Jalan Perwira",Taiping,Perak,"Taiping, Perak, Malaysia",Private,"Columbia Asia Hospital – Taiping, No. 5, Jalan Perwira, Taiping, Perak, Malaysia"
120,Hospital Tambunan,Peti Surat 10,Tambunan,Sabah,"Tambunan, Sabah, Malaysia",Public,"Hospital Tambunan, Peti Surat 10, Tambunan, Sabah, Malaysia"
121,Hospital Tampin,"Jalan Haji Ahmad Zainuddin, Tampin",Tampin,Negeri Sembilan,"Tampin, Negeri Sembilan, Malaysia",Public,"Hospital Tampin, Jalan Haji Ahmad Zainuddin, Tampin, Tampin, Negeri Sembilan, Malaysia"
122,Hospital Tanah Merah,17500 Tanah Merah,Tanah Merah,Kelantan,"Tanah Merah, Kelantan, Malaysia",Public,"Hospital Tanah Merah, 17500 Tanah Merah, Tanah Merah, Kelantan, Malaysia"
123,Hospital Tangkak,"Jalan Hospital,  Tangkak Muar",Tangkak,Johor,"Tangkak, Johor, Malaysia",Public,"Hospital Tangkak, Jalan Hospital,  Tangkak Muar, Tangkak, Johor, Malaysia"
64,Mount Miriam Cancer Hospital,"23, Jalan Bulan, Fettes Park",Tanjung Bungah,Pulau Pinang,"Tanjung Bungah, Pulau Pinang, Malaysia",Private,"Mount Miriam Cancer Hospital, 23, Jalan Bulan, Fettes Park, Tanjung Bungah, Pulau Pinang, Malaysia"
125,Hospital Tapah,Jalan Temoh,Tapah,Perak,"Tapah, Perak, Malaysia",Public,"Hospital Tapah, Jalan Temoh, Tapah, Perak, Malaysia"
157,Tawau Specialist Medical Centre Sabah Sdn. Bhd.,"No. 3680 - 3692, Tanah Lot 107525664 - 107525780, Tinagat Plaza Mile 2.5, Jalan Bunga Raya, Off Jalan Apas",Tawau,Sabah,"Tawau, Sabah, Malaysia",Private,"Tawau Specialist Medical Centre Sabah Sdn. Bhd., No. 3680 - 3692, Tanah Lot 107525664 - 107525780, Tinagat Plaza Mile 2.5, Jalan Bunga Raya, Off Jalan Apas, Tawau, Sabah, Malaysia"
126,Hospital Tawau,Peti Surat 80,Tawau,Sabah,"Tawau, Sabah, Malaysia",Public,"Hospital Tawau, Peti Surat 80, Tawau, Sabah, Malaysia"
154,Kmi Tawau Medical Centre (Tawau Specialist Hospital),"Tb 4551, Jalan Abaca",Tawau,Sabah,"Tawau, Sabah, Malaysia",Private,"Kmi Tawau Medical Centre (Tawau Specialist Hospital), Tb 4551, Jalan Abaca, Tawau, Sabah, Malaysia"
127,Hospital Teluk Intan,Jalan Changkat Jong,Teluk Intan,Perak,"Teluk Intan, Perak, Malaysia",Public,"Hospital Teluk Intan, Jalan Changkat Jong, Teluk Intan, Perak, Malaysia"
82,Jendarata Group Hospital,Jendarata Estate,Teluk Intan,Perak,"Teluk Intan, Perak, Malaysia",Private,"Jendarata Group Hospital, Jendarata Estate, Teluk Intan, Perak, Malaysia"
74,Anson Bay Medical Centre,"Lot 992, Batu 3,1/2, Jalan Maharajalela",Teluk Intan,Perak,"Teluk Intan, Perak, Malaysia",Private,"Anson Bay Medical Centre, Lot 992, Batu 3,1/2, Jalan Maharajalela, Teluk Intan, Perak, Malaysia"
108,Hospital Sultan Hj Ahmad Shah,Jalan Maran,Temerloh,Pahang,"Temerloh, Pahang, Malaysia",Public,"Hospital Sultan Hj Ahmad Shah, Jalan Maran, Temerloh, Pahang, Malaysia"
133,Hospital Tenom,Peti surat 97,Tenom,Sabah,"Tenom, Sabah, Malaysia",Public,"Hospital Tenom, Peti surat 97, Tenom, Sabah, Malaysia"
137,Hospital Tuaran,"Peti surat 996, 89207 Tuaran Sabah",Tuaran,Sabah,"Tuaran, Sabah, Malaysia",Public,"Hospital Tuaran, Peti surat 996, 89207 Tuaran Sabah, Tuaran, Sabah, Malaysia"
138,Hospital Tumpat,Jalan Kelaburan,Tumpat,Kelantan,"Tumpat, Kelantan, Malaysia",Public,"Hospital Tumpat, Jalan Kelaburan, Tumpat, Kelantan, Malaysia"
76,Bernam River Ulu Group Hospital,Ulu Bernam Estate,Ulu Bernam,Perak,"Ulu Bernam, Perak, Malaysia",Private,"Bernam River Ulu Group Hospital, Ulu Bernam Estate, Ulu Bernam, Perak, Malaysia"
3,Hospital Bahagia Ulu Kinta,Tanjong Rambutan,Ulu Kinta,Perak,"Ulu Kinta, Perak, Malaysia",Public,"Hospital Bahagia Ulu Kinta, Tanjong Rambutan, Ulu Kinta, Perak, Malaysia"
86,Hospital Rehabilitasi Cheras,"Jalan Yaacob Latif, Bandar Tun Razak Cheras 56000 Kuala Lumpur
W.P. Kuala Lumpur",W.P. Kuala Lumpur,W.P. Kuala Lumpur,"W.P. Kuala Lumpur, W.P. Kuala Lumpur, Malaysia",Public,"Hospital Rehabilitasi Cheras, Jalan Yaacob Latif, Bandar Tun Razak Cheras 56000 Kuala Lumpur
W.P. Kuala Lumpur, W.P. Kuala Lumpur, W.P. Kuala Lumpur, Malaysia"
139,Hospital Tunku Azizah (Wanita Dan Kanak-Kanak),Jalan Raja Muda Abdul Aziz,W.P. Kuala Lumpur,W.P. Kuala Lumpur,"W.P. Kuala Lumpur, W.P. Kuala Lumpur, Malaysia",Public,"Hospital Tunku Azizah (Wanita Dan Kanak-Kanak), Jalan Raja Muda Abdul Aziz, W.P. Kuala Lumpur, W.P. Kuala Lumpur, Malaysia"
46,Hospital Kuala Lumpur,Jalan Pahang,W.P. Kuala Lumpur,W.P. Kuala Lumpur,"W.P. Kuala Lumpur, W.P. Kuala Lumpur, Malaysia",Public,"Hospital Kuala Lumpur, Jalan Pahang, W.P. Kuala Lumpur, W.P. Kuala Lumpur, Malaysia"
144,Institut Perubatan Respiratori,Jalan Pahang,W.P. Kuala Lumpur,W.P. Kuala Lumpur,"W.P. Kuala Lumpur, W.P. Kuala Lumpur, Malaysia",Public,"Institut Perubatan Respiratori, Jalan Pahang, W.P. Kuala Lumpur, W.P. Kuala Lumpur, Malaysia"
52,Hospital Labuan,Peti Surat 81006,W.P. Labuan,W.P. Labuan,"W.P. Labuan, W.P. Labuan, Malaysia",Public,"Hospital Labuan, Peti Surat 81006, W.P. Labuan, W.P. Labuan, Malaysia"
143,Institut Kanser Negara,"No 4, Jalan P7, Presint 7
62250 Putrajaya
W.P. Putrajaya",W.P. Putrajaya,W.P. Putrajaya,"W.P. Putrajaya, W.P. Putrajaya, Malaysia",Public,"Institut Kanser Negara, No 4, Jalan P7, Presint 7
62250 Putrajaya
W.P. Putrajaya, W.P. Putrajaya, W.P. Putrajaya, Malaysia"
78,Hospital Putrajaya,"Pusat Pentadbiran Kerajaan Persekutuan, presint 7",W.P. Putrajaya,W.P. Putrajaya,"W.P. Putrajaya, W.P. Putrajaya, Malaysia",Public,"Hospital Putrajaya, Pusat Pentadbiran Kerajaan Persekutuan, presint 7, W.P. Putrajaya, W.P. Putrajaya, Malaysia"
142,Hospital Yan,Batu 25 Jalan Yan,Yan,Kedah,"Yan, Kedah, Malaysia",Public,"Hospital Yan, Batu 25 Jalan Yan, Yan, Kedah, Malaysia"
